{"type":"FeatureCollection","features":[{"type":"Feature","properties":{"gridcode":0},"geometry":{"type":"Polygon","coordinates":[[[-117.3124695932021,33.437459425064965],[-117.24118587045997,33.4373648722246],[-117.23698663669111,33.43753295460974],[-117.23693026326589,33.43915610000966],[-117.237252565809,33.43916398586394],[-117.23735879934216,33.445393898362184],[-117.23928337890686,33.44571171395416],[-117.24628099123463,33.448590061045316],[-117.24820568373642,33.448907723354516],[-117.25361080435552,33.45120528215133],[-117.25553558937808,33.45152281853835],[-117.26253430062816,33.454400137875936],[-117.26445919854746,33.45471752095709],[-117.27145851351729,33.457594275952204],[-117.2733835243111,33.457911505714854],[-117.28038344295109,33.46078769631231],[-117.2823085665972,33.46110477274381],[-117.28771550047036,33.46340066464932],[-117.2896407165675,33.4637176151189],[-117.29026709651036,33.464274124477136],[-117.3125890950313,33.4721172885313],[-117.3124695932021,33.437459425064965]]]}},{"type":"Feature","properties":{"gridcode":0},"geometry":{"type":"Polygon","coordinates":[[[-117.44041507266788,33.2603711474814],[-117.43759892595587,33.2578699226708],[-117.4373380864875,33.26598796401281],[-117.43765970836512,33.265995279633046],[-117.43745062964005,33.31256632643296],[-117.49992527018301,33.31261527233379],[-117.49990386652148,33.37489092915861],[-117.56242740273076,33.37490525737486],[-117.56244659921998,33.437446524756766],[-117.49987392775101,33.43743219471454],[-117.49983917324735,33.448802155207304],[-117.500161539679,33.44880929076898],[-117.49983842566917,33.45908980225484],[-117.50016083378705,33.459096937726635],[-117.49983767789821,33.46937731689329],[-117.50016012771313,33.46938445227545],[-117.4998369299344,33.47966469940998],[-117.50015942145711,33.47967183470267],[-117.49983618177768,33.48995195009227],[-117.50015871501896,33.48995908529566],[-117.49984394190916,33.49996854502705],[-117.36459202347656,33.499873608014276],[-117.36262918320239,33.510385954251134],[-117.50893580397619,33.50856131636099],[-117.5095799984163,33.488001376771024],[-117.511574427393,33.48615030132098],[-117.5119308096974,33.485075283160256],[-117.51392511057541,33.483224159492345],[-117.51428144799273,33.48214913000519],[-117.51627562078302,33.480297958118925],[-117.51663191331842,33.479222917304],[-117.518625958032,33.47737169719902],[-117.51898220569073,33.47629664505495],[-117.52164636159542,33.47364792205134],[-117.5220025517525,33.47257285539492],[-117.52265590924212,33.47231646347231],[-117.52267276494014,33.47177539276523],[-117.52332611371904,33.47151899671266],[-117.52435245004966,33.469646447196105],[-117.52500577592772,33.46939004075116],[-117.52502261502154,33.46884896771749],[-117.52567593218944,33.468592557142706],[-117.52569276655599,33.46805148347039],[-117.5276947304737,33.4659295399585],[-117.57883836071947,33.46053994833348],[-117.5795079026771,33.459742136777564],[-117.58136679979312,33.451660312451914],[-117.58204446536723,33.450591930103],[-117.5842663158325,33.44116411652051],[-117.5849438530917,33.440095702711254],[-117.58498491601081,33.43874294774888],[-117.58530724919713,33.43874984042666],[-117.58534830524447,33.43739708304481],[-117.58567063301088,33.43740397469724],[-117.58607504683867,33.43470534329957],[-117.58639736376573,33.434712232901475],[-117.58716506705619,33.430667707830374],[-117.58784247604332,33.42959926253477],[-117.58788348427933,33.42824648866252],[-117.58820577520602,33.4282533731597],[-117.58824677657373,33.4269005968631],[-117.58856906208189,33.42690748033522],[-117.58897332430384,33.42420880291342],[-117.58929559897534,33.42421568433556],[-117.59006305376136,33.42017108610311],[-117.59074033451925,33.41910260929514],[-117.59078128809945,33.41774981647509],[-117.59110353677704,33.417756692793866],[-117.59114448349243,33.41640389754455],[-117.59146672675281,33.416410772838574],[-117.59150766660375,33.415057975159385],[-117.59182990444708,33.41506484942867],[-117.592960276245,33.409674251060395],[-117.59363742881646,33.408605742714016],[-117.59729242870121,33.394334448948634],[-117.59383868861966,33.39128270770102],[-117.59319440512252,33.39126896929496],[-117.58409863559585,33.382952284228935],[-117.58345442117631,33.38293849008414],[-117.5746744520279,33.37489842811636],[-117.57403030438591,33.374884580039335],[-117.56525217427958,33.366843702592234],[-117.56460809341402,33.36682980059267],[-117.55551809916778,33.358510553715014],[-117.55487408737628,33.35849659600706],[-117.54609969641535,33.35045406055484],[-117.54545575139798,33.350440048943994],[-117.53636962673869,33.34211908514225],[-117.53572575079292,33.34210501784332],[-117.52695509735982,33.33406082466279],[-117.52631128818587,33.334046703480524],[-117.50781837381254,33.31766399555826],[-117.50717470047721,33.31764976484451],[-117.49840961922037,33.3096030992071],[-117.49776601265336,33.30958881463925],[-117.48868952247331,33.301263573881435],[-117.48804598497173,33.301249233675954],[-117.46956854004202,33.28485956027051],[-117.46892513836926,33.28484511061311],[-117.46016752249136,33.27679513116397],[-117.45952418758206,33.27678062769169],[-117.45045542321867,33.26845195536152],[-117.44981215736976,33.26843739629205],[-117.44105827175578,33.2603857603463],[-117.44041507266788,33.2603711474814]]]}},{"type":"Feature","properties":{"gridcode":0},"geometry":{"type":"Polygon","coordinates":[[[-117.06236631544371,32.749933547343396],[-117.00000079435063,32.74990425070567],[-116.99990105369406,32.812505699821386],[-117.06263497777492,32.81254342698258],[-117.06236631544371,32.749933547343396]]]}},{"type":"Feature","properties":{"gridcode":0},"geometry":{"type":"Polygon","coordinates":[[[-117.19909457430413,32.71766719209754],[-117.19943285398756,32.717133624827405],[-117.1991134518747,32.717125623270114],[-117.19909457430413,32.71766719209754]]]}},{"type":"Feature","properties":{"gridcode":1},"geometry":{"type":"Polygon","coordinates":[[[-117.18736107345751,32.687559565396526],[-117.17969828867767,32.687366440573705],[-117.17872143537173,32.68788385173005],[-117.17965078481708,32.688720411871756],[-117.17993207220958,32.689811644554425],[-117.18056115767006,32.69009855054381],[-117.18054216148411,32.6906401373866],[-117.18117125560343,32.69092703959828],[-117.18206269303563,32.692846746851544],[-117.18269180984527,32.69313363958942],[-117.18388364607507,32.69560295827004],[-117.18512297354673,32.69671830015488],[-117.18540436319202,32.69780950642752],[-117.18664374577371,32.698924827892746],[-117.1869251637829,32.70001602685397],[-117.18755435404398,32.700302889251105],[-117.18736107345751,32.687559565396526]]]}},{"type":"Feature","properties":{"gridcode":0},"geometry":{"type":"Polygon","coordinates":[[[-117.12689194074363,32.68060044628309],[-117.12501517932026,32.67946800666715],[-117.12504391288022,32.68759996090613],[-117.13495119275966,32.68758336343582],[-117.1327935151481,32.68535971484039],[-117.13215497682809,32.685343329405434],[-117.12999743664388,32.68311961961516],[-117.12935891668148,32.68310321815466],[-117.12689194074363,32.68060044628309]]]}},{"type":"Feature","properties":{"gridcode":0},"geometry":{"type":"Polygon","coordinates":[[[-117.24916929930022,32.68367749724014],[-117.248331974717,32.68013348321248],[-117.2480127147397,32.680125620897265],[-117.24799417518292,32.68066722689756],[-117.2463514886517,32.68198191394759],[-117.24633293747856,32.68252351821327],[-117.24235308571325,32.68676185624624],[-117.24233450650644,32.68730345609318],[-117.241686639008,32.687558496169174],[-117.24166805512826,32.68810009527991],[-117.2410201790974,32.68835513119887],[-117.2410015905446,32.68889672957345],[-117.24035370598119,32.68915176133526],[-117.24033511275512,32.689693358973734],[-117.23968721965902,32.68994838657845],[-117.23966862175948,32.69048998348082],[-117.23902072013058,32.69074500692836],[-117.23900211755738,32.69128660309477],[-117.23835420739549,32.6915416223851],[-117.23833560014849,32.692083217815565],[-117.23768768145348,32.69233823294866],[-117.23766906953247,32.69287982764326],[-117.23702114230416,32.693134838619066],[-117.23700252570903,32.69367643257789],[-117.2363545899473,32.69393143939639],[-117.23633596867782,32.69447303261948],[-117.23568802438247,32.69472803528061],[-117.23566939843845,32.69526962776802],[-117.23502144560943,32.69552462627174],[-117.23500281499072,32.69606621802355],[-117.23435485362782,32.696321212369824],[-117.23433621833419,32.69686280338611],[-117.23368824843729,32.69711779357492],[-117.23366960846862,32.69765938385572],[-117.23302163003754,32.69791436988702],[-117.2330029853936,32.69845595943244],[-117.2323549984282,32.69871094130618],[-117.23233634910883,32.69925253011622],[-117.23168835360902,32.69950750783239],[-117.23166969961406,32.70004909590714],[-117.23102169557963,32.70030406946567],[-117.23100303690885,32.70084565680519],[-117.23035502433967,32.701100626206085],[-117.23033636099295,32.70164221281045],[-117.22968833988888,32.701897178053635],[-117.22966967186602,32.702438763922885],[-117.2290216422269,32.70269372500838],[-117.2290029695277,32.70323531014259],[-117.2283549313534,32.703490267070286],[-117.22833625397769,32.70403185146953],[-117.22768820726805,32.70428680423946],[-117.22766952521566,32.70482838790377],[-117.22702146997052,32.70508333651583],[-117.22700278324128,32.70562491944532],[-117.22635471946052,32.70587986389949],[-117.22633602805422,32.70642144609419],[-117.22568795573768,32.70667638639046],[-117.22566925965415,32.70721796785042],[-117.2250211788017,32.70747290398876],[-117.22500247804076,32.70801448471407],[-117.22435438865226,32.7082694166944],[-117.22433568321372,32.70881099668512],[-117.22368758528899,32.70906592450741],[-117.22366887517268,32.70960750376358],[-117.22302076871159,32.709862427427815],[-117.22300205391737,32.71040400594955],[-117.22235393891977,32.710658925455675],[-117.22233521944739,32.71120050324301],[-117.22168709591313,32.711455418591],[-117.22166837176246,32.711996995643986],[-117.22102023969138,32.71225190683378],[-117.22100151086222,32.71279348315247],[-117.22035337025417,32.7130483901841],[-117.22033463674637,32.71358996576857],[-117.21968648760124,32.713844868641914],[-117.21966774941457,32.71438644349223],[-117.21901959173219,32.71464134220731],[-117.21900084886653,32.71518291632354],[-117.21835268264678,32.71543781088026],[-117.21833393510187,32.71597938426252],[-117.21768576034457,32.71623427466086],[-117.21766700812029,32.71677584730912],[-117.2170188248253,32.717030733549095],[-117.21700006792143,32.71757230546346],[-117.21635187608862,32.71782718754499],[-117.21633311450502,32.7183687587255],[-117.21535612031167,32.718886466779225],[-117.21533735177132,32.71942803696559],[-117.21135403835832,32.7236650450874],[-117.21133524173423,32.72420661087254],[-117.21068697843089,32.72446145768283],[-117.21066817712553,32.72500302273465],[-117.21001990528296,32.725257865386105],[-117.21000109929619,32.72579942970471],[-117.2093528189143,32.72605426819736],[-117.20933400824588,32.72659583178275],[-117.20868571932445,32.72685066611653],[-117.20866690397428,32.727392228968796],[-117.2080186065132,32.72764705914368],[-117.20799978648105,32.728188621262895],[-117.20735148048021,32.72844344727884],[-117.2073326557659,32.72898500866504],[-117.2066843412251,32.72923983052202],[-117.2066655118284,32.72978139117528],[-117.20601718874758,32.730036208873244],[-117.20599835466837,32.7305777687936],[-117.20535002304729,32.73083258233253],[-117.20533118428538,32.73137414152013],[-117.20468284412395,32.731628950899974],[-117.20466400067917,32.73217050935478],[-117.20401565197719,32.73242531457548],[-117.20399680384935,32.7329668722976],[-117.20334844660671,32.733221673359154],[-117.20332959379563,32.733763230348686],[-117.20268122801215,32.734018027251025],[-117.20266237051766,32.73455958350799],[-117.20201399619322,32.7348143762511],[-117.20199513401512,32.735355931775565],[-117.2013467511496,32.73561072035939],[-117.20132788428772,32.736152275151426],[-117.20067949288094,32.736407059575974],[-117.20066062133509,32.73694861363563],[-117.20001222138687,32.73720339390081],[-117.19999334515691,32.73774494722816],[-117.19934493666716,32.73799972333396],[-117.19932605575285,32.73854127592905],[-117.19835815057742,32.73878804441064],[-117.19650737334841,32.73684457076378],[-117.19586841307458,32.73682855048002],[-117.19370772808524,32.734606236155315],[-117.19306878616786,32.734590199828226],[-117.19059824617743,32.73208902063594],[-117.18995932489524,32.73207296648916],[-117.18747947968664,32.72984248819537],[-117.18734389727504,32.742847773268956],[-117.18766340046237,32.742855808143915],[-117.1874168902646,32.749895884024845],[-117.25009257710268,32.75009934297675],[-117.24984255305556,32.87880825966693],[-117.25016260404391,32.87881611452805],[-117.24983757591164,32.88829148073145],[-117.25015766474986,32.88829933550249],[-117.24984188629016,32.89750385662799],[-117.2501620119072,32.89751171128553],[-117.24983690790758,32.906986829968254],[-117.25015707139217,32.90699468453603],[-117.24984121921557,32.91619896563048],[-117.2501614194962,32.91620682008513],[-117.2498362395938,32.92568169210708],[-117.2501564777596,32.92568954647236],[-117.2498405518317,32.934893588371345],[-117.25016082681064,32.93490144262382],[-117.24983557097009,32.94437606884528],[-117.2501558838519,32.94438392300875],[-117.24983988413825,32.9535877265481],[-117.2501602338504,32.95359558059915],[-117.24984419829886,32.96279926700513],[-117.2501645848498,32.962807120943914],[-117.249839216135,32.97228138185927],[-117.25015964061527,32.97228923570957],[-117.24984353122672,32.98149268500441],[-117.25016399256302,32.98150053874281],[-117.2498385478218,32.990974556003884],[-117.25015904710509,32.990982409654166],[-117.24984286384503,33.000185622674756],[-117.25016340000154,33.000193476213454],[-117.2498378791984,33.00966725068188],[-117.2501584533196,33.009675104132846],[-117.24984219615352,33.01887808171639],[-117.2501628071652,33.01888593505615],[-117.24983721026452,33.02835946759391],[-117.25015785925866,33.028367320846314],[-117.249841528152,33.03757006383035],[-117.25016221405382,33.03757791697186],[-117.24983654102003,33.047051208441424],[-117.25015726492202,33.047059061495936],[-117.24984085984025,33.05626157071845],[-117.25016162066719,33.056269423662414],[-117.24983587146467,33.06574247492655],[-117.25015667030956,33.06575032778391],[-117.24984019121798,33.07495260408322],[-117.25016102700508,33.074960456830375],[-117.2498352015982,33.08443326875232],[-117.25015607542109,33.08444112141322],[-117.24983952228507,33.09364316562804],[-117.25016043306738,33.09365101817913],[-117.24984384396784,33.10285294835376],[-117.25016479171809,33.102860800795185],[-117.24983885304125,33.11233325705702],[-117.25015983885382,33.11234110941272],[-117.24984317565841,33.12154280875559],[-117.25016419845622,33.12155066100199],[-117.24983818348636,33.131022880074994],[-117.25015924436426,33.13103073223603],[-117.24984250703824,33.14023220158681],[-117.25016360491874,33.14024005363892],[-117.2498375136201,33.14971203638766],[-117.25015864959849,33.14971988835479],[-117.24984183810719,33.158921128553494],[-117.25016301110544,33.15892898041198],[-117.24983684344228,33.16840072770147],[-117.25015805455631,33.16840857947534],[-117.24984116886492,33.17760959136245],[-117.25016241701617,33.17761744302808],[-117.24983617295271,33.18708895572359],[-117.26107194614156,33.187633829098836],[-117.37908711927294,33.18746513938062],[-117.378176543874,33.18581894503533],[-117.37754284649976,33.1855333479776],[-117.37725711578753,33.18444336398527],[-117.37662343261712,33.18415776123186],[-117.37633771937546,33.18306777292288],[-117.37570405040832,33.18278216447386],[-117.37541835463632,33.18169217184784],[-117.37478469987201,33.18140655770322],[-117.37449902156864,33.18031656075981],[-117.37386538100668,33.18003094091964],[-117.37357972017097,33.17894093965846],[-117.37294609381084,33.17865531412275],[-117.37266045044184,33.17756530854348],[-117.37202683828309,33.17727967731233],[-117.3717412123798,33.176189667414455],[-117.37110761442189,33.17590403048785],[-117.37082200598336,33.174814016271135],[-117.3701884222259,33.17452837364913],[-117.36990283125107,33.17343835511314],[-117.3692692616935,33.17315270679582],[-117.36898368818147,33.172062683940155],[-117.36835013282334,33.17177702992749],[-117.36806457677311,33.170687002751855],[-117.36743103561393,33.17040134304392],[-117.3671454970245,33.169311311547844],[-117.36651197006378,33.16902564614474],[-117.36622644893421,33.16793561032788],[-117.36559293617144,33.16764993922955],[-117.3653074325007,33.166559899091546],[-117.36467393393549,33.166274222298114],[-117.3643884477226,33.1651841778386],[-117.36375496335438,33.16489849535003],[-117.36346949459842,33.163808446568574],[-117.36283602442673,33.16352275838499],[-117.36255057312667,33.16243270528128],[-117.36191711715105,33.162147011402645],[-117.36163168330593,33.161056953976264],[-117.36099824152583,33.16077125440267],[-117.36040952761964,33.159132392677975],[-117.35977610547086,33.158846685493685],[-117.35765317759244,33.15500503815677],[-117.35701979802542,33.15471931388798],[-117.35489711235324,33.15087759346011],[-117.35426377536368,33.150591852107205],[-117.35397848721958,33.14950175852068],[-117.3533451644215,33.14921601147314],[-117.3530598937232,33.14812591356044],[-117.35242658511616,33.14784016081829],[-117.35214133186261,33.146750058578974],[-117.35150803744611,33.14646430014231],[-117.3512228016364,33.14537419357607],[-117.35058952140994,33.14508842944485],[-117.350304303043,33.143998318551276],[-117.34967103700616,33.14371254872566],[-117.34938583608107,33.14262243350435],[-117.3487525842333,33.142336657984295],[-117.3484674007491,33.14124653843489],[-117.34783416308996,33.14096075722047],[-117.3475489970456,33.1398706333426],[-117.34691577357458,33.139584846433856],[-117.34663062496914,33.13849471822714],[-117.34599741568577,33.138208925624106],[-117.34571228451824,33.13711879308817],[-117.34507908942204,33.13683299479088],[-117.34479397569147,33.13574285792532],[-117.34416079478196,33.13545705393381],[-117.34387569848737,33.134366912738344],[-117.34324253176403,33.134081103052665],[-117.34295745290444,33.13299095752682],[-117.34232430036681,33.13270514214701],[-117.34203923894125,33.13161499229045],[-117.34140610058884,33.13132917121657],[-117.34112105659632,33.13023901702891],[-117.34048793242866,33.129953190260956],[-117.34020290586817,33.12886303174182],[-117.3395697958848,33.12857719927986],[-117.33928478675541,33.12748703642891],[-117.3386516909558,33.12720119827297],[-117.33836669925653,33.126111031089785],[-117.33773361764023,33.12582518723995],[-117.33744864337004,33.12473501572413],[-117.33681557593657,33.12444916618042],[-117.33622762547587,33.122810098605164],[-117.33559457765584,33.12252424145209],[-117.33347377686044,33.11868195181043],[-117.33284077158393,33.11839607757612],[-117.33255589053304,33.117305882822635],[-117.33192289943673,33.11702000289464],[-117.32980242116363,33.11317761568569],[-117.32916947260509,33.11289171867701],[-117.32888466123991,33.11180150658113],[-117.32825172685962,33.11151560387889],[-117.32828791863011,33.110433016795135],[-117.32591926292864,33.1044177031265],[-117.32595548307054,33.10333510648],[-117.32445941838077,33.10004911884612],[-117.3244956563107,33.09896651631509],[-117.32212762558797,33.092951030084684],[-117.32216389187194,33.09186841796866],[-117.32066819752984,33.08858232919913],[-117.32070448159114,33.08749971118489],[-117.31717166980144,33.07793487011391],[-117.31720799636385,33.076852237683624],[-117.31571278646267,33.073566016433006],[-117.31574913078829,33.07248337808664],[-117.31338254192046,33.06646749280482],[-117.31341891456022,33.06538484482204],[-117.31192407466945,33.062098522215926],[-117.31196046506169,33.061015868303365],[-117.30842986819238,33.051450409976944],[-117.30846630102583,33.05036774157133],[-117.30697194513483,33.04708128619623],[-117.30700839570676,33.04599861184288],[-117.30464324734422,33.03998232656326],[-117.30467972619036,33.03889964252216],[-117.30318573997302,33.03561308557177],[-117.3032222365469,33.034530395569334],[-117.29969385250017,33.02496431847236],[-117.29973039145547,33.02388161389982],[-117.29823688879728,33.02059492389264],[-117.29827344546632,33.01951221334088],[-117.29474631478328,33.00994578482643],[-117.29478291379993,33.008863059660946],[-117.29328989445138,33.005576236433804],[-117.29332651116768,33.00449350527118],[-117.2909636171307,32.99847659135815],[-117.29100026205889,32.99739385042736],[-117.289507611857,32.99410692528067],[-117.2895442744742,32.99302417833905],[-117.28601935333195,32.98345712868069],[-117.28605605823708,32.982374367048465],[-117.28456389090508,32.97908730839413],[-117.28460061348521,32.978004540733195],[-117.28223915649683,32.971987224394184],[-117.28227590724907,32.97090444691384],[-117.280784108728,32.96761728612031],[-117.28082087714456,32.96653450259762],[-117.277298163452,32.956966830281466],[-117.27733497409696,32.95588403199122],[-117.27584365800652,32.95259673740248],[-117.2758804863018,32.95151393305201],[-117.27352046501835,32.94549621334173],[-117.27355732144609,32.94441339912058],[-117.27206637383127,32.94112600217312],[-117.27210324789867,32.94004318187812],[-117.26858273956722,32.93047488539089],[-117.26861965580358,32.92939205025145],[-117.26712919018064,32.92610451922128],[-117.26716612404272,32.92502167799015],[-117.26480753712214,32.919003553963556],[-117.26484449907704,32.91792070281057],[-117.26335440159475,32.9146330692022],[-117.26339138116472,32.91355021194379],[-117.25987307610845,32.90398128977266],[-117.25991009778794,32.902898417593036],[-117.25494046404039,32.88895849380407],[-117.25531617122131,32.88734199333457],[-117.25596560927055,32.887086946843304],[-117.25598414271933,32.88654549882925],[-117.25997318777308,32.88230788186885],[-117.26033025972248,32.881232802661266],[-117.26097963235,32.880977724939875],[-117.26099813053389,32.880436271467886],[-117.26164749458728,32.88018118959265],[-117.26166598807829,32.879639735406414],[-117.26231534355769,32.87938464937739],[-117.26233383235602,32.878843194476886],[-117.26632215879471,32.874605305855894],[-117.26667911134486,32.87353019482254],[-117.26732840141364,32.873275077566035],[-117.2673468549602,32.87273361720283],[-117.26799613645628,32.87247849579282],[-117.26801458531169,32.87193703471479],[-117.26866385823521,32.87168190915134],[-117.26868230239967,32.87114044735842],[-117.27266991038996,32.86690228706703],[-117.27302674357698,32.865827144199024],[-117.27367595110091,32.86557198741074],[-117.27369436002678,32.86503052015033],[-117.27434355897947,32.86477535920896],[-117.27436196321595,32.86423389123307],[-117.2750111535975,32.863978726138576],[-117.27502955314476,32.86343725744717],[-117.27901644285335,32.85919882547554],[-117.27937315671328,32.858123650764014],[-117.28002228170625,32.85786845444733],[-117.2800406460281,32.857326980283716],[-117.28068976245127,32.85707177981428],[-117.28070812208541,32.85653030493457],[-117.28135722993892,32.8562751003124],[-117.28137558488561,32.855733624716585],[-117.28536175647906,32.851494921054716],[-117.28538924662458,32.85068270105778],[-117.28478602361379,32.84958422972458],[-117.28455774555727,32.84686906320164],[-117.28395456260276,32.84577058149039],[-117.28372632353268,32.84305539868175],[-117.28312318062969,32.841956906588756],[-117.2828949805397,32.83924170748453],[-117.2825750842172,32.839233945659785],[-117.28206371656721,32.83542798959641],[-117.28174383552843,32.835420225356025],[-117.28178970398336,32.8340664956377],[-117.28118665515156,32.832967979182726],[-117.28095854614352,32.83025274167694],[-117.28035553734712,32.82915421482782],[-117.28012746729799,32.826438960993194],[-117.27952449853221,32.82534042374625],[-117.27929646743561,32.82262515357283],[-117.27869353869566,32.82152660592439],[-117.27846554654529,32.8188113194023],[-117.27786265782636,32.817712761348666],[-117.27763470461585,32.814997458468014],[-117.27703185591321,32.81389889000549],[-117.2768039416362,32.81118357075637],[-117.27620113294505,32.810084991881254],[-117.27597325759524,32.80736965625374],[-117.27537048891074,32.80627106696236],[-117.27514265248182,32.80355571494658],[-117.27482289911185,32.80354793059047],[-117.27431212628477,32.79974174682127],[-117.27399238818539,32.79973396005114],[-117.27403836695738,32.79838016507057],[-117.27343569223869,32.797281551335814],[-117.2732079467528,32.79456616069992],[-117.27260531202475,32.7934675365365],[-117.27237760543855,32.790752129479074],[-117.2717750106963,32.789653494883325],[-117.27154734300345,32.78693807139448],[-117.2709447882423,32.78583942636272],[-117.27071715943646,32.78312398643253],[-117.27011464465158,32.78202533096107],[-117.26988705472647,32.779309874579695],[-117.26928457991305,32.778211208664835],[-117.26905702886233,32.7754957358223],[-117.26873738780253,32.77548793377515],[-117.26822708183292,32.77168157014682],[-117.2673511403799,32.76922122865957],[-117.26739721362722,32.76786737753967],[-117.26679485869957,32.76676868027256],[-117.26629391782491,32.76269148801854],[-117.26569161680074,32.76159277668111],[-117.2654642342842,32.75887723204819],[-117.26486197320594,32.75777851024759],[-117.26463462953,32.75506294910055],[-117.26403240839286,32.75396421683313],[-117.26380510355119,32.751248639162064],[-117.2632029223504,32.75014989642412],[-117.26297565633668,32.747434302219126],[-117.26237351506745,32.746335549007],[-117.26214628787538,32.74361993825823],[-117.26154418653294,32.74252117456823],[-117.26131699815627,32.739805547265746],[-117.26071493673582,32.73870677309418],[-117.26048778716815,32.73599112922811],[-117.25988576566496,32.73489234457129],[-117.25965865489998,32.732176684131765],[-117.25933918706502,32.73216885475775],[-117.25882960134071,32.72836221196312],[-117.25851014874995,32.72835438017829],[-117.25855634751228,32.72700045335066],[-117.2579544197647,32.72590164408773],[-117.25772739966575,32.723185944591556],[-117.25712551181942,32.72208712483103],[-117.25689853050204,32.71937140872819],[-117.25629668255222,32.71827257846632],[-117.25606974001015,32.71555684574694],[-117.25546793195201,32.714458004980145],[-117.25524102817897,32.71174225563432],[-117.25463926000778,32.71064340435882],[-117.25441239499743,32.707927638376695],[-117.25381066670839,32.70682877658885],[-117.25358384045445,32.7041129939605],[-117.25298215204282,32.703014121656665],[-117.25082564696166,32.69130704994344],[-117.25022409207334,32.6902081424325],[-117.24999743384122,32.6874922872074],[-117.24967814448401,32.68748442973311],[-117.24916929930022,32.68367749724014]]]}},{"type":"Feature","properties":{"gridcode":0},"geometry":{"type":"Polygon","coordinates":[[[-116.50005843928344,32.58843339012439],[-116.2690101700198,32.60697773506153],[-116.10713374331473,32.61934571560459],[-116.10651376541293,32.665150267612006],[-116.10683283124442,32.66516139000224],[-116.10646573509136,32.67274080032306],[-116.10678483102888,32.672751922727585],[-116.10641769570329,32.6803312492774],[-116.1067368217525,32.680342371696405],[-116.10636964724613,32.68792161458787],[-116.10668880341271,32.687932737021534],[-116.10632158971734,32.69551189636732],[-116.10664077600694,32.69552301881587],[-116.1062735231143,32.703102094728685],[-116.10659273953266,32.70311321719228],[-116.1062254474345,32.71069220978482],[-116.10654469398729,32.71070333226368],[-116.10617736267531,32.71828224164872],[-116.10649663936825,32.71829336414298],[-116.10612926883418,32.72587219043323],[-116.10644857567294,32.725883312943104],[-116.10608116590855,32.73346205625143],[-116.10640050289881,32.7334731787771],[-116.1060199294352,32.74132250411206],[-116.10633929765665,32.74133362668692],[-116.1059718069309,32.748912201382986],[-116.10629120531543,32.748923323974],[-116.10592367533405,32.756501816030564],[-116.10624310388741,32.756512938638],[-116.10587553464214,32.76409134816794],[-116.10619499336998,32.76410247079191],[-116.1058273848525,32.77168079790808],[-116.1061468737606,32.771691920548776],[-116.10577922596264,32.779270165364075],[-116.1060987450566,32.77928128802176],[-116.1057310579699,32.786859450649075],[-116.10605060725547,32.78687057332391],[-116.10568288087174,32.7944486538762],[-116.10600246035463,32.79445977656835],[-116.10563469466557,32.802037775158546],[-116.10595430435149,32.80204889786822],[-116.10558649934882,32.80962681460936],[-116.10590613924343,32.80963793733674],[-116.10509089329304,32.885783342656644],[-116.10541083666722,32.88579446560479],[-116.10502944344832,32.89364209294275],[-116.10534941817244,32.893653215944006],[-116.10498113578684,32.901230153503775],[-116.10530114078875,32.90124127652503],[-116.10493281898053,32.90881813371431],[-116.10525285426596,32.90882925675572],[-116.10488449302676,32.91640603368777],[-116.1052045586014,32.916417156749596],[-116.10483615792295,32.92399385353765],[-116.10515625379254,32.92400497662002],[-116.10478781366648,32.93158159337743],[-116.10510793983677,32.93159271648056],[-116.10473946025475,32.939169253320664],[-116.10505961673152,32.9391803764447],[-116.10469109768516,32.94675683348081],[-116.10501128447412,32.946767956625976],[-116.10464272595516,32.95434433397146],[-116.10496294306202,32.95435545713796],[-116.10459434506204,32.96193175490618],[-116.1049145924926,32.961942878094185],[-116.10453278808892,32.969789674138156],[-116.10485306692898,32.9698007973813],[-116.104484387451,32.97737693346999],[-116.10480469662645,32.97738805673501],[-116.10443597764193,32.98496411359073],[-116.10475631715848,32.98497523687789],[-116.10438755865911,32.99255121461414],[-116.1047079285225,32.99256233792355],[-116.10433913049985,33.000138236653825],[-116.10465953071588,33.00014935998571],[-116.10429069316163,33.00772517982352],[-116.10461112373598,33.00773630317806],[-116.10424224664179,33.01531204423691],[-116.10456270758027,33.0153231676143],[-116.10419379093779,33.02289883000772],[-116.1045142822461,33.02290995340816],[-116.1041453260469,33.03048553724974],[-116.10446584773086,33.03049666067343],[-116.1040968519666,33.03807216607679],[-116.10441740403195,33.038083289523854],[-116.10398669368743,33.05351573565236],[-116.10430730761522,33.053526859180394],[-116.10393819060894,33.06110212713014],[-116.10425883493558,33.06111325068213],[-116.104192919241,33.0624659689616],[-116.125074681833,33.06237541050902],[-116.1249787175554,33.249879425352006],[-116.31007691633313,33.25013702852228],[-116.31233945014199,33.249940238075496],[-116.31266464721169,33.24290721217078],[-116.31234324417863,33.242896685894046],[-116.31265590680785,33.236134099921635],[-116.31233453105509,33.236123573526726],[-116.31264475773752,33.18763854133283],[-116.24992718629954,33.187462027424786],[-116.25008344025896,32.93761993260077],[-116.18756175135054,32.9374085437939],[-116.18765394070755,32.88157579526859],[-116.18733400287707,32.88156490700447],[-116.18764293128072,32.875069986037296],[-116.12483721221795,32.8750833361588],[-116.12516425709829,32.86831791160866],[-116.12484438070427,32.86830684477144],[-116.12515831774503,32.86181197666205],[-116.12483846729559,32.861800909706794],[-116.12516545792153,32.85503535895106],[-116.12484563448943,32.855024291910766],[-116.12515951945464,32.848529302495386],[-116.12483972195854,32.84851823533683],[-116.1251535819511,32.84202318641411],[-116.12483381038673,32.842012119137124],[-116.12516072076738,32.83524637980366],[-116.12484097620712,32.83523531244126],[-116.12515478414963,32.82874014176996],[-116.12483506551254,32.82872907428889],[-116.12516192168343,32.821963207979294],[-116.12484223004144,32.821952140412506],[-116.12515598595124,32.81545684769566],[-116.12483632022386,32.81544578000999],[-116.12516312220292,32.80867978641495],[-116.12484348346179,32.808668718643325],[-116.12515718735605,32.80217330358396],[-116.12483757452088,32.80216223569321],[-116.12516432232616,32.79539611450345],[-116.12484473646828,32.795385046526484],[-116.12515838836431,32.78888950882782],[-116.12483882840388,32.78887844073148],[-116.12516552205324,32.78211219163789],[-116.12484598906119,32.78210112345505],[-116.12515958897617,32.7756054628204],[-116.124840081873,32.77559439451793],[-116.12515365686066,32.76909867357763],[-116.12483417564215,32.76908760515538],[-116.1251607891919,32.76232116495496],[-116.12484133492845,32.76231009644587],[-116.12515485796061,32.75581425212768],[-116.12483542957324,32.75580318349858],[-116.12516198901164,32.74903661462503],[-116.12484258757047,32.74902554590883],[-116.12515605866429,32.74252957791619],[-116.12483668309066,32.742518509079744],[-116.12516318843564,32.73575181122432],[-116.12484383979924,32.73574074230047],[-116.12515725897194,32.729244650337044],[-116.12483793619458,32.72923358129271],[-116.12516438746401,32.72246675414668],[-116.12484509161499,32.72245568501473],[-116.12506251800721,32.62512174088143],[-116.50006293038842,32.62503621702009],[-116.50005843928344,32.58843339012439]]]}},{"type":"Feature","properties":{"gridcode":0},"geometry":{"type":"Polygon","coordinates":[[[-116.81551986502886,32.56263728984093],[-116.81457433278085,32.56233917592842],[-116.81456361925302,32.56260998697666],[-116.81551986502886,32.56263728984093]]]}},{"type":"Feature","properties":{"gridcode":1},"geometry":{"type":"Polygon","coordinates":[[[-117.00000079435063,32.74990425070567],[-117.06236631544371,32.749933547343396],[-117.06265612662997,32.75075421843139],[-117.06233921026836,32.75941847238616],[-117.06265876658286,32.75942686406836],[-117.06234181628784,32.768091010479175],[-117.06266140710625,32.7680994020498],[-117.0623371220962,32.78570651050413],[-117.06265678302145,32.785714901877114],[-117.06233972874458,32.79437872330021],[-117.06265942419633,32.79438711456214],[-117.06234233595649,32.80305082912099],[-117.06266206594219,32.80305922027197],[-117.06263497777492,32.81254342698258],[-116.99990105369406,32.812505699821386],[-117.00000079435063,32.74990425070567]],[[-117.12503868303865,32.56263949383684],[-116.81553057534542,32.56236647871185],[-116.63619497096414,32.57743731803924],[-116.50070783871377,32.58818261969351],[-116.50005843928344,32.58843339012439],[-116.49983470661165,32.59357798090361],[-116.50015354039489,32.59358798125075],[-116.50006293038842,32.62503621702009],[-116.12506251800721,32.62512174088143],[-116.12484509161499,32.72245568501473],[-116.12516438746401,32.72246675414668],[-116.12483793619458,32.72923358129271],[-116.12515725897194,32.729244650337044],[-116.12484383979924,32.73574074230047],[-116.12516318843564,32.73575181122432],[-116.12483668309066,32.742518509079744],[-116.12515605866429,32.74252957791619],[-116.12484258757047,32.74902554590883],[-116.12516198901164,32.74903661462503],[-116.12483542957324,32.75580318349858],[-116.12515485796061,32.75581425212768],[-116.12484133492845,32.76231009644587],[-116.1251607891919,32.76232116495496],[-116.12483417564215,32.76908760515538],[-116.12515365686066,32.76909867357763],[-116.124840081873,32.77559439451793],[-116.12515958897617,32.7756054628204],[-116.12484598906119,32.78210112345505],[-116.12516552205324,32.78211219163789],[-116.12483882840388,32.78887844073148],[-116.12515838836431,32.78888950882782],[-116.12484473646828,32.795385046526484],[-116.12516432232616,32.79539611450345],[-116.12483757452088,32.80216223569321],[-116.12515718735605,32.80217330358396],[-116.12484348346179,32.808668718643325],[-116.12516312220292,32.80867978641495],[-116.12483632022386,32.81544578000999],[-116.12515598595124,32.81545684769566],[-116.12484223004144,32.821952140412506],[-116.12516192168343,32.821963207979294],[-116.12483506551254,32.82872907428889],[-116.12515478414963,32.82874014176996],[-116.12484097620712,32.83523531244126],[-116.12516072076738,32.83524637980366],[-116.12483381038673,32.842012119137124],[-116.1251535819511,32.84202318641411],[-116.12483972195854,32.84851823533683],[-116.12515951945464,32.848529302495386],[-116.12484563448943,32.855024291910766],[-116.12516545792153,32.85503535895106],[-116.12483846729559,32.861800909706794],[-116.12515831774503,32.86181197666205],[-116.12484438070427,32.86830684477144],[-116.12516425709829,32.86831791160866],[-116.12483721221795,32.8750833361588],[-116.18764293128072,32.875069986037296],[-116.18733400287707,32.88156490700447],[-116.18765394070755,32.88157579526859],[-116.18756175135054,32.9374085437939],[-116.25008344025896,32.93761993260077],[-116.24992718629954,33.187462027424786],[-116.31264475773752,33.18763854133283],[-116.31233945014199,33.249940238075496],[-116.1249787175554,33.249879425352006],[-116.125074681833,33.06237541050902],[-116.104192919241,33.0624659689616],[-116.10398620655829,33.07329874882566],[-116.10365232644429,33.07355816401172],[-116.08143180654588,33.07468214145487],[-116.082528243358,33.42585341091734],[-116.30251730147994,33.4270442702375],[-116.58251932159413,33.42774342815896],[-116.89026644062268,33.427703588739206],[-117.02995575070565,33.427132355484645],[-117.0306002159317,33.42714930764204],[-117.03097213329455,33.43447000002542],[-117.23615132417446,33.43372194072264],[-117.23679588515473,33.433737716064556],[-117.23698663669111,33.43753295460974],[-117.3124695932021,33.437459425064965],[-117.3125890950313,33.4721172885313],[-117.36649161805248,33.491254710950685],[-117.36459202347656,33.499873608014276],[-117.49984394190916,33.49996854502705],[-117.50015871501896,33.48995908529566],[-117.49983618177768,33.48995195009227],[-117.50015942145711,33.47967183470267],[-117.4998369299344,33.47966469940998],[-117.50016012771313,33.46938445227545],[-117.49983767789821,33.46937731689329],[-117.50016083378705,33.459096937726635],[-117.49983842566917,33.45908980225484],[-117.500161539679,33.44880929076898],[-117.49983917324735,33.448802155207304],[-117.49987392775101,33.43743219471454],[-117.56244659921998,33.437446524756766],[-117.56242740273076,33.37490525737486],[-117.49990386652148,33.37489092915861],[-117.49992527018301,33.31261527233379],[-117.43745062964005,33.31256632643296],[-117.43760761969057,33.25759931980379],[-117.4316630205445,33.252318697000334],[-117.43101988821638,33.252304030349634],[-117.42195688170646,33.24397279917598],[-117.42131381843485,33.243958076958194],[-117.41256549416379,33.23590397038532],[-117.41192249764947,33.23588919440129],[-117.41004621831712,33.23422119190981],[-117.40883935194383,33.23175612296087],[-117.40820518012715,33.23147071580071],[-117.40791886621606,33.23038087560241],[-117.40728470861933,33.23009546274513],[-117.40699841221162,33.229005618242766],[-117.40636426883435,33.22872019968847],[-117.40607798992903,33.227630350881675],[-117.40544386077069,33.22734492663033],[-117.40515759936679,33.22625507351873],[-117.40452348442695,33.225969643570416],[-117.40423724052343,33.22487978615361],[-117.4036031398016,33.224594350508404],[-117.40331691339753,33.22350448878601],[-117.40268282689321,33.22321904744396],[-117.4023966179876,33.22212918141563],[-117.40176254570035,33.22184373437672],[-117.4014763542922,33.22075386404206],[-117.40084229622148,33.22046841130634],[-117.40055612230982,33.21937853666499],[-117.39992207845518,33.219093078232525],[-117.39963592203904,33.21800319928409],[-117.39900189239998,33.21771773515493],[-117.39871575347834,33.216627851899034],[-117.3980817380544,33.216342382073215],[-117.39779561662633,33.215252494509485],[-117.39716161541696,33.21496701898704],[-117.39687551148147,33.21387712711514],[-117.39624152448626,33.2135916458961],[-117.39595543804234,33.212501749715585],[-117.39532146526076,33.21221626280004],[-117.39503539630745,33.21112636231059],[-117.39440143773902,33.21084086969854],[-117.39411538627532,33.20975096489974],[-117.3934814419196,33.20946546659121],[-117.39319540794452,33.20837555748271],[-117.39256147780101,33.20809005347781],[-117.39227546131359,33.20700014005922],[-117.39164154538177,33.20671463035794],[-117.39135554638104,33.2056247126289],[-117.39072164466045,33.20533919723129],[-117.39043566314541,33.204249275191415],[-117.38980177563556,33.20396375409752],[-117.38951581160524,33.202873827746394],[-117.38888193830564,33.202588300956265],[-117.38859599175905,33.201498370293606],[-117.38796213266923,33.201212837807226],[-117.38767620360542,33.20012290283259],[-117.38704235872487,33.1998373646501],[-117.3867564471428,33.198747425363116],[-117.3861226164711,33.19846188148449],[-117.38461342748538,33.19544773206876],[-117.38397963067118,33.19516217488202],[-117.38369377763715,33.194072221095595],[-117.38305999503011,33.19378665821288],[-117.38277415947354,33.192696700112485],[-117.38214039107318,33.192411131533795],[-117.38185457299313,33.191321169119],[-117.38122081879895,33.19103559484445],[-117.38093501819446,33.18994562811489],[-117.38030127820599,33.18966004814448],[-117.37908711927294,33.18746513938062],[-117.26107194614156,33.187633829098836],[-117.24983617295271,33.18708895572359],[-117.25016241701617,33.17761744302808],[-117.24984116886492,33.17760959136245],[-117.25015805455631,33.16840857947534],[-117.24983684344228,33.16840072770147],[-117.25016301110544,33.15892898041198],[-117.24984183810719,33.158921128553494],[-117.25015864959849,33.14971988835479],[-117.2498375136201,33.14971203638766],[-117.25016360491874,33.14024005363892],[-117.24984250703824,33.14023220158681],[-117.25015924436426,33.13103073223603],[-117.24983818348636,33.131022880074994],[-117.25016419845622,33.12155066100199],[-117.24984317565841,33.12154280875559],[-117.25015983885382,33.11234110941272],[-117.24983885304125,33.11233325705702],[-117.25016479171809,33.102860800795185],[-117.24984384396784,33.10285294835376],[-117.25016043306738,33.09365101817913],[-117.24983952228507,33.09364316562804],[-117.25015607542109,33.08444112141322],[-117.2498352015982,33.08443326875232],[-117.25016102700508,33.074960456830375],[-117.24984019121798,33.07495260408322],[-117.25015667030956,33.06575032778391],[-117.24983587146467,33.06574247492655],[-117.25016162066719,33.056269423662414],[-117.24984085984025,33.05626157071845],[-117.25015726492202,33.047059061495936],[-117.24983654102003,33.047051208441424],[-117.25016221405382,33.03757791697186],[-117.249841528152,33.03757006383035],[-117.25015785925866,33.028367320846314],[-117.24983721026452,33.02835946759391],[-117.2501628071652,33.01888593505615],[-117.24984219615352,33.01887808171639],[-117.2501584533196,33.009675104132846],[-117.2498378791984,33.00966725068188],[-117.25016340000154,33.000193476213454],[-117.24984286384503,33.000185622674756],[-117.25015904710509,32.990982409654166],[-117.2498385478218,32.990974556003884],[-117.25016399256302,32.98150053874281],[-117.24984353122672,32.98149268500441],[-117.25015964061527,32.97228923570957],[-117.249839216135,32.97228138185927],[-117.2501645848498,32.962807120943914],[-117.24984419829886,32.96279926700513],[-117.2501602338504,32.95359558059915],[-117.24983988413825,32.9535877265481],[-117.2501558838519,32.94438392300875],[-117.24983557097009,32.94437606884528],[-117.25016082681064,32.93490144262382],[-117.2498405518317,32.934893588371345],[-117.2501564777596,32.92568954647236],[-117.2498362395938,32.92568169210708],[-117.2501614194962,32.91620682008513],[-117.24984121921557,32.91619896563048],[-117.25015707139217,32.90699468453603],[-117.24983690790758,32.906986829968254],[-117.2501620119072,32.89751171128553],[-117.24984188629016,32.89750385662799],[-117.25015766474986,32.88829933550249],[-117.24983757591164,32.88829148073145],[-117.25016260404391,32.87881611452805],[-117.24984255305556,32.87880825966693],[-117.25009257710268,32.75009934297675],[-117.1874168902646,32.749895884024845],[-117.18748895906995,32.72957170956614],[-117.18685005842299,32.72955563760067],[-117.18437986675123,32.72705430294903],[-117.1837409867395,32.72703821316582],[-117.17536364854547,32.71978036161487],[-117.17472482816119,32.71976422016098],[-117.1722553147744,32.71726258246411],[-117.17161651502553,32.71724642319626],[-117.16914717573526,32.71474470778099],[-117.16850839662185,32.71472853070015],[-117.16013371673478,32.70746940949129],[-117.15949499724945,32.70745318075354],[-117.15702633602241,32.704951162333074],[-117.15638763717276,32.704934915786126],[-117.15422890100785,32.702711736857445],[-117.15359022051537,32.70269547427823],[-117.14490844938778,32.69515616462568],[-117.14426983080261,32.69513984862736],[-117.13900543891624,32.69039760328161],[-117.13836685932432,32.690381253450845],[-117.13589937973396,32.68787870680932],[-117.12504391288022,32.68759996090613],[-117.12502486310055,32.679197213675984],[-117.1243960611597,32.67890999066717],[-117.12451228642846,32.67566046570126],[-117.12419305658555,32.67565224967141],[-117.12244486945536,32.635220520398576],[-117.12212580025867,32.63521229797919],[-117.12112239513972,32.60970632542557],[-117.1208034272113,32.60969809892111],[-117.1209293863597,32.606177427567566],[-117.12061043243347,32.606169200469104],[-117.12071701643822,32.60319015678615],[-117.12103595857255,32.60319838361623],[-117.12283342894388,32.606497592694915],[-117.12497904202486,32.60899251046184],[-117.12503868303865,32.56263949383684]]]}},{"type":"Feature","properties":{"gridcode":0},"geometry":{"type":"Polygon","coordinates":[[[-117.12822639710171,32.535883330948785],[-116.88243350290438,32.55693630654135],[-116.81713501928571,32.56214115376557],[-116.81712431439325,32.562411965139034],[-117.12503868303865,32.56263949383684],[-117.12495969098258,32.60953415186486],[-117.1255879529796,32.609821400809146],[-117.1258682316247,32.61091289500593],[-117.12710545090515,32.61202901764049],[-117.12738575781434,32.6131205044887],[-117.12862303206904,32.61423660669075],[-117.12951236654011,32.61615694742593],[-117.13014069647744,32.61644416796129],[-117.13042105992247,32.6175356401153],[-117.13165844413632,32.61865170145329],[-117.13193883585308,32.61974316626162],[-117.13256720244567,32.620030371633156],[-117.13284761128918,32.62112183195265],[-117.1340850842866,32.622237860533126],[-117.13436552140594,32.623329313508485],[-117.13560304939395,32.624445321658015],[-117.136492663224,32.626365578048016],[-117.13712109777379,32.62665275500902],[-117.13740159145236,32.62774419329886],[-117.13863922943221,32.62886016058751],[-117.13891975139417,32.62995159153596],[-117.14015744437529,32.63106753839464],[-117.1404379946232,32.63215896200271],[-117.14106648849422,32.632446114328445],[-117.14134705587763,32.63353753345101],[-117.14258483767449,32.634653447555365],[-117.14286543334799,32.635744859339084],[-117.14410327015536,32.63686075301438],[-117.14499322409408,32.63878090679357],[-117.14562178594285,32.63906803070677],[-117.14590243820405,32.640159427815554],[-117.14714038504304,32.641275280633764],[-117.14742106560192,32.64236667040652],[-117.148659067462,32.64348250279667],[-117.1489397763211,32.64457388523427],[-117.14956839750907,32.64486098451052],[-117.14984912351244,32.64595236246604],[-117.15108721422055,32.64706816210504],[-117.15136796852816,32.648159532726964],[-117.15260611426666,32.64927531193877],[-117.1534964084673,32.65119536315132],[-117.1541250976536,32.65148243401307],[-117.15440590857747,32.65257378997068],[-117.1556441643874,32.65368952832915],[-117.1559250036232,32.654780876956],[-117.15716331447408,32.655896594888375],[-117.15744418202435,32.656987936185324],[-117.15807293056788,32.65727498240846],[-117.15835381527118,32.65836631922671],[-117.15959221500232,32.65948200441107],[-117.15987312802419,32.660573333901],[-117.16111158280563,32.66168899866012],[-117.16200221742152,32.6636089473502],[-117.1626310339839,32.66389596515688],[-117.16291200365053,32.66498727999302],[-117.16415056854316,32.6661029039026],[-117.16443156653597,32.66719421141329],[-117.16567018648955,32.668309814898606],[-117.1659512128111,32.669401115084725],[-117.16658008874867,32.66968810825109],[-117.16686113223204,32.67077940396182],[-117.1680998410981,32.6718949747023],[-117.16838091291427,32.67298626309003],[-117.16961967685057,32.67410181340715],[-117.1705106520351,32.67602165961901],[-117.17113959601213,32.6763086243669],[-117.17142072450159,32.677399898111425],[-117.17265959858888,32.678515407582786],[-117.17294075541882,32.67960667400711],[-117.17417968458693,32.6807221630561],[-117.17446086975987,32.681813422161206],[-117.1750898731301,32.68210036226704],[-117.17537107547362,32.68319161690009],[-117.17661009358652,32.684307073207435],[-117.17750134873782,32.686226835249535],[-117.17813039748015,32.68651375640856],[-117.17841165652044,32.68760499640709],[-117.18736107345751,32.687559565396526],[-117.18753540255618,32.70084446928064],[-117.18816460147818,32.70113132789989],[-117.18844604785389,32.7022225195505],[-117.18968554066629,32.70333780017749],[-117.1905773190289,32.70525740505651],[-117.19120656334407,32.705544244726866],[-117.19148806646038,32.7066354217592],[-117.1936384820585,32.70912865577296],[-117.1939200307386,32.71021982103279],[-117.19515972281103,32.71133502808805],[-117.19544129986936,32.71242618604164],[-117.19668104707527,32.71354137267953],[-117.19696265251442,32.71463252332784],[-117.19820245485738,32.71574768954866],[-117.19848408867982,32.71683883289265],[-117.1991134518747,32.717125623270114],[-117.19767698272207,32.71248225158169],[-117.19705710607815,32.711924664873685],[-117.19444738475431,32.704270501998245],[-117.19382759382935,32.70371289077418],[-117.19239166962299,32.69906936123802],[-117.19177193305197,32.69851173442486],[-117.1912184465131,32.69605856168191],[-117.1905987412865,32.69550092593589],[-117.18916315020586,32.690857299752714],[-117.18854349932002,32.69029964841387],[-117.18799016780383,32.687846430514924],[-117.18737054825493,32.687288770241054],[-117.18593529019716,32.682645047342255],[-117.1844338129725,32.67989686240324],[-117.18270808940245,32.67443260388894],[-117.18120687576862,32.67168434282533],[-117.17948154762726,32.666219969275005],[-117.17798059751141,32.66347163204957],[-117.17625566467724,32.658007143382726],[-117.1747549780065,32.6552587299583],[-117.17303044035806,32.64979412609443],[-117.17241121758903,32.64923635203851],[-117.16980587447553,32.64158091729235],[-117.16830571447663,32.63883235135835],[-117.16775335393926,32.636378849525265],[-117.16625336102742,32.633630235121636],[-117.16452986418203,32.62816532735415],[-117.16303013445084,32.62541663661636],[-117.1624780268184,32.62296306051297],[-117.16185908362567,32.622405206083805],[-117.16130703235012,32.619951613359376],[-117.15980756572682,32.61720284625028],[-117.1592556126682,32.61474922465896],[-117.1586367549697,32.61419134564935],[-117.15808485824957,32.611737707423345],[-117.15658565466148,32.60898886390571],[-117.15603385612634,32.6065351967892],[-117.15541508390147,32.605977293193185],[-117.15486334168646,32.60352360942829],[-117.15336440106093,32.60077468946496],[-117.152812756999,32.59832097678594],[-117.15219407022724,32.59776304859768],[-117.15164248246701,32.59530931925661],[-117.1501438047314,32.59256032281037],[-117.14959231509239,32.590106564531624],[-117.14897371375314,32.589548611745144],[-117.14842228039745,32.58709483679062],[-117.14692386547917,32.5843457638243],[-117.14637253021279,32.58189195990851],[-117.14487428207582,32.579142838316464],[-117.1443230448785,32.576689005424484],[-117.1437045831106,32.576131012389084],[-117.14315340216662,32.57367716279898],[-117.14165541672836,32.57092796462614],[-117.14110433382159,32.56847408603624],[-117.14048595743209,32.567916068387085],[-117.13993493076033,32.56546217308539],[-117.13843720794821,32.56271289829455],[-117.13788627928182,32.560258973969475],[-117.13726798825019,32.55970093170063],[-117.13671711580044,32.55724699065014],[-117.13521965554197,32.55449763920407],[-117.1346688810657,32.5520436691066],[-117.13405067537144,32.55148560221214],[-117.13349995709353,32.54903161537555],[-117.13200275931622,32.54628218723713],[-117.13145213898,32.54382817132995],[-117.13083401860251,32.543270079803946],[-117.12822639710171,32.535883330948785]]]}}]}