{"type":"FeatureCollection","features":[{"type":"Feature","id":3,"geometry":{"type":"LineString","coordinates":[[-104.91023724760342,39.402293981613411],[-104.90950414996276,39.402351784869353],[-104.9093944349183,39.402355638143419]]},"properties":{"Erosion_a_Proj.OBJECTID":3,"Erosion_a_Proj.Severity":null,"Erosion_a_Proj.Length":null,"Erosion_a_Proj.Height":5.5,"Erosion_a_Proj.InspectDate":null,"Erosion_a_Proj.StrucD":"Yes","Erosion_a_Proj.RelatedOut":0,"Erosion_a_Proj.Comment":"This feature is determined to be damaged","Erosion_a_Proj.GlobalID":"{87484546-F6C2-4AB0-B942-CFAE446BBB28}","Erosion_a_Proj.Shape_Length":239.25750582278653,"Erosion_a_Proj_AddSpatialJoin.OBJECTID":1,"Erosion_a_Proj_AddSpatialJoin.Join_Count":1,"Erosion_a_Proj_AddSpatialJoin.TARGET_FID":3,"Erosion_a_Proj_AddSpatialJoin.STRNAME":"Un-named","Erosion_a_Proj_AddSpatialJoin.Shape_Length":239.25750582278653,"Erosion_a_Proj_AddSpatialJoin_1.OBJECTID":1,"Erosion_a_Proj_AddSpatialJoin_1.Join_Count":1,"Erosion_a_Proj_AddSpatialJoin_1.TARGET_FID":3,"Erosion_a_Proj_AddSpatialJoin_1.OBJECTID_1":191,"Erosion_a_Proj_AddSpatialJoin_1.FNODE_":16464,"Erosion_a_Proj_AddSpatialJoin_1.TNODE_":16781,"Erosion_a_Proj_AddSpatialJoin_1.STRNAME":"Un-named","Erosion_a_Proj_AddSpatialJoin_1.GLOBALID":"3e632323-3ae9-4714-81dd-3b3703f09596","Erosion_a_Proj_AddSpatialJoin_1.created_us":" ","Erosion_a_Proj_AddSpatialJoin_1.created_da":" ","Erosion_a_Proj_AddSpatialJoin_1.last_edite":" ","Erosion_a_Proj_AddSpatialJoin_1.last_edi_1":" ","Erosion_a_Proj_AddSpatialJoin_1.SHAPE_STLe":" ","Erosion_a_Proj_AddSpatialJoin_1.OBJECTID_2":159,"Erosion_a_Proj_AddSpatialJoin_1.SHAPE__Len":10567.314592500001,"Erosion_a_Proj_AddSpatialJoin_1.Shape_Leng":10567.314423,"Erosion_a_Proj_AddSpatialJoin_1.Reach_ID":"R4","Erosion_a_Proj_AddSpatialJoin_1.FullName":"R4 Un-named","Erosion_a_Proj_AddSpatialJoin_1.Length":1305.174680781729,"Erosion_a_Proj_AddSpatialJoin_1.Percent":4.8776308492303464,"Erosion_a_Proj_AddSpatialJoin_1.Shape_Length":1305.1088937948296}}]}