{"type":"FeatureCollection","features":[{"type":"Feature","id":1,"geometry":{"type":"Point","coordinates":[-104.9101387196601,39.402346242952348]},"properties":{"Safety_Hazard_Proj.OBJECTID":1,"Safety_Hazard_Proj.Severity":"F","Safety_Hazard_Proj.Comment":"This channel and outfall have extreme damage. | This is located near Un-named.","Safety_Hazard_Proj.GlobalId":"{3A9C5ED6-57F0-45EC-9049-E4202464E3A8}","Safety_Hazard_Proj.Inspection_Date":1773167119667,"Safety_Hazard_Proj_AddSpatialJoin_1.OBJECTID":1,"Safety_Hazard_Proj_AddSpatialJoin_1.Join_Count":1,"Safety_Hazard_Proj_AddSpatialJoin_1.TARGET_FID":1,"Safety_Hazard_Proj_AddSpatialJoin_1.STRNAME":"Un-named","Safety_Hazard_Proj_AddSpatialJoin_2.OBJECTID":1,"Safety_Hazard_Proj_AddSpatialJoin_2.Join_Count":1,"Safety_Hazard_Proj_AddSpatialJoin_2.TARGET_FID":1,"Safety_Hazard_Proj_AddSpatialJoin_2.OBJECTID_1":191,"Safety_Hazard_Proj_AddSpatialJoin_2.FNODE_":16464,"Safety_Hazard_Proj_AddSpatialJoin_2.TNODE_":16781,"Safety_Hazard_Proj_AddSpatialJoin_2.STRNAME":"Un-named","Safety_Hazard_Proj_AddSpatialJoin_2.GLOBALID":"3e632323-3ae9-4714-81dd-3b3703f09596","Safety_Hazard_Proj_AddSpatialJoin_2.created_us":" ","Safety_Hazard_Proj_AddSpatialJoin_2.created_da":" ","Safety_Hazard_Proj_AddSpatialJoin_2.last_edite":" ","Safety_Hazard_Proj_AddSpatialJoin_2.last_edi_1":" ","Safety_Hazard_Proj_AddSpatialJoin_2.SHAPE_STLe":" ","Safety_Hazard_Proj_AddSpatialJoin_2.OBJECTID_2":159,"Safety_Hazard_Proj_AddSpatialJoin_2.SHAPE__Len":10567.314592500001,"Safety_Hazard_Proj_AddSpatialJoin_2.Shape_Leng":10567.314423,"Safety_Hazard_Proj_AddSpatialJoin_2.Reach_ID":"R4","Safety_Hazard_Proj_AddSpatialJoin_2.FullName":"R4 Un-named","Safety_Hazard_Proj_AddSpatialJoin_2.Length":1305.174680781729,"Safety_Hazard_Proj_AddSpatialJoin_2.Percent":4.8776308492303464}}]}