{"type":"FeatureCollection","features":[{"type":"Feature","properties":{},"geometry":{"type":"Polygon","coordinates":[[[-117.31250000030178,33.4375000001782],[-117.31250000022418,33.472072565160595],[-117.36635129938297,33.49128298945483],[-117.36463232862224,33.50000239042766],[-117.37500000016124,33.49999999989755],[-117.37500000042286,33.43749999957312],[-117.31250000030178,33.4375000001782]]]}},{"type":"Feature","properties":{},"geometry":{"type":"Polygon","coordinates":[[[-117.25000000040347,33.31249999958469],[-117.25000000046688,33.37499999963277],[-117.31250000043258,33.37499999992459],[-117.31250000033567,33.312500000203784],[-117.25000000040347,33.31249999958469]]]}},{"type":"Feature","properties":{},"geometry":{"type":"Polygon","coordinates":[[[-116.74999999998877,33.37500000001877],[-116.75000000002355,33.42768703709258],[-116.87500000051892,33.42758715268142],[-116.87499999965411,33.37500000025592],[-116.74999999998877,33.37500000001877]]]}},{"type":"Feature","properties":{},"geometry":{"type":"Polygon","coordinates":[[[-116.93750000045213,33.312500000308475],[-116.93750000027367,33.42748532844255],[-116.99999999999633,33.42734891680321],[-117.00000000009683,33.31250000034409],[-116.93750000045213,33.312500000308475]]]}},{"type":"Feature","properties":{},"geometry":{"type":"Polygon","coordinates":[[[-116.50000000002565,33.31250000023592],[-116.49999999998516,33.42747175050014],[-116.56249999981075,33.42757745456571],[-116.56250000021136,33.312500000157314],[-116.50000000002565,33.31250000023592]]]}},{"type":"Feature","properties":{},"geometry":{"type":"Polygon","coordinates":[[[-117.31249999964761,33.18749999966242],[-117.31250000005834,33.25000000030334],[-117.37499999953714,33.25000000041753],[-117.37499999968958,33.18749999984791],[-117.31249999964761,33.18749999966242]]]}},{"type":"Feature","properties":{},"geometry":{"type":"Polygon","coordinates":[[[-116.68750000002876,33.18749999994446],[-116.62499999991525,33.18749999967904],[-116.62499999978347,33.249999999687205],[-116.68749999989349,33.24999999996393],[-116.68750000002876,33.18749999994446]]]}},{"type":"Feature","properties":{},"geometry":{"type":"Polygon","coordinates":[[[-116.08182218110682,33.187503705816106],[-116.08197189131249,33.25000371838285],[-116.12500000022548,33.25000000039835],[-116.12500000011597,33.18749999973473],[-116.08182218110682,33.187503705816106]]]}},{"type":"Feature","properties":{},"geometry":{"type":"Polygon","coordinates":[[[-116.87500000015511,33.12500000006646],[-116.87499999969727,33.31250000014156],[-116.93750000045213,33.312500000308475],[-116.93749999961837,33.12500000018009],[-116.87500000015511,33.12500000006646]]]}},{"type":"Feature","properties":{},"geometry":{"type":"Polygon","coordinates":[[[-116.87500000015511,33.12500000006646],[-116.87499999973373,33.06250000027645],[-116.81250000048048,33.06250000014672],[-116.81250000034116,33.125000000364224],[-116.87500000015511,33.12500000006646]]]}},{"type":"Feature","properties":{},"geometry":{"type":"Polygon","coordinates":[[[-116.1040923518936,33.06250386929916],[-116.10402108120765,33.0733975200408],[-116.08155232224681,33.07458419454734],[-116.08167271757952,33.12500369286887],[-116.12500000024697,33.125000000169656],[-116.12499999982708,33.062499999636394],[-116.1040923518936,33.06250386929916]]]}},{"type":"Feature","properties":{},"geometry":{"type":"Polygon","coordinates":[[[-116.68750000002876,33.18749999994446],[-116.74999999978631,33.18750000031479],[-116.75000000049155,33.0625000002073],[-116.68750000043923,33.06250000035208],[-116.68750000002876,33.18749999994446]]]}},{"type":"Feature","properties":{},"geometry":{"type":"Polygon","coordinates":[[[-116.31250000033646,33.000000000215415],[-116.25000000028433,32.999999999634085],[-116.25000000012567,33.06250000007951],[-116.31250000003882,33.0624999997463],[-116.31250000033646,33.000000000215415]]]}},{"type":"Feature","properties":{},"geometry":{"type":"Polygon","coordinates":[[[-116.6875000002526,32.93750000013409],[-116.68749999983444,33.00000000040924],[-116.7500000003267,32.99999999983551],[-116.74999999998391,32.937499999877076],[-116.6875000002526,32.93750000013409]]]}},{"type":"Feature","properties":{},"geometry":{"type":"Polygon","coordinates":[[[-116.31250000033646,33.000000000215415],[-116.3749999995124,33.000000000341856],[-116.37500000028082,33.06249999996272],[-116.43750000022031,33.062499999823956],[-116.43749999960914,33.25000000000439],[-116.50000000049111,33.25000000025909],[-116.50000000012086,33.12500000013258],[-116.56249999979855,33.125000000434234],[-116.56249999966597,33.0624999995523],[-116.5000000002133,33.06250000027899],[-116.50000000019841,32.93749999960128],[-116.31250000013499,32.93750000018393],[-116.31250000033646,33.000000000215415]]]}},{"type":"Feature","properties":{},"geometry":{"type":"Polygon","coordinates":[[[-117.06250000005016,32.81249999993766],[-117.06249999955187,32.87499999964275],[-117.12500000020367,32.8750000002278],[-117.12500000002763,32.81250000022904],[-117.06250000005016,32.81249999993766]]]}},{"type":"Feature","properties":{},"geometry":{"type":"Polygon","coordinates":[[[-116.50000000009929,32.687500000292495],[-116.5000000004639,32.750000000177735],[-116.56250000049236,32.74999999964325],[-116.56249999968821,32.68749999974171],[-116.50000000009929,32.687500000292495]]]}},{"type":"Feature","properties":{},"geometry":{"type":"Polygon","coordinates":[[[-116.68750000022386,32.812500000330104],[-116.75000000047524,32.812500000394294],[-116.74999999953565,32.74999999985784],[-116.81249999987881,32.74999999966518],[-116.8124999997441,32.68750000014074],[-116.75000000012635,32.68749999966932],[-116.75000000062694,32.56788038133775],[-116.68749999978733,32.57306043499859],[-116.68750000037598,32.62500000009825],[-116.62500000016813,32.625000000090935],[-116.6249999997912,32.75000000039559],[-116.68750000004071,32.74999999985134],[-116.68750000022386,32.812500000330104]]]}}]}