{"type":"FeatureCollection","features":[{"type":"Feature","id":1,"geometry":{"type":"LineString","coordinates":[[-104.90954748146078,39.402675623836267],[-104.90941133304202,39.402451668770311],[-104.90927286531183,39.401917459669818],[-104.90906267738639,39.401643649086353],[-104.90866493490684,39.401162079735293],[-104.90840881911602,39.400921646670042],[-104.90818160337511,39.400752011601092],[-104.90764793302057,39.400356672995677],[-104.90738622617569,39.400238455709513],[-104.90715123410595,39.4001593371475],[-104.90691934855336,39.400170151310014],[-104.90671958736229,39.400195749214802]]},"properties":{"Reach_R4.OBJECTID":1,"Reach_R4.OBJECTID_1":191,"Reach_R4.FNODE_":16464,"Reach_R4.TNODE_":16781,"Reach_R4.STRNAME":"Un-named","Reach_R4.GLOBALID":"3e632323-3ae9-4714-81dd-3b3703f09596","Reach_R4.created_us":" ","Reach_R4.created_da":" ","Reach_R4.last_edite":" ","Reach_R4.last_edi_1":" ","Reach_R4.SHAPE_STLe":" ","Reach_R4.OBJECTID_2":159,"Reach_R4.SHAPE__Len":10567.314592500001,"Reach_R4.Shape_Leng":10567.314423,"Reach_R4.Reach_ID":"R4","Reach_R4.Shape_Length":1305.1088937948296,"Reach_R4_AddSpatialJoin.OBJECTID":1,"Reach_R4_AddSpatialJoin.Join_Count":1,"Reach_R4_AddSpatialJoin.TARGET_FID":1,"Reach_R4_AddSpatialJoin.STRNAME":"Un-named","Reach_R4_AddSpatialJoin.Shape_Length":1305.1088937948296,"Reach_R4_AddSpatialJoin_1.OBJECTID":1,"Reach_R4_AddSpatialJoin_1.Join_Count":1,"Reach_R4_AddSpatialJoin_1.TARGET_FID":1,"Reach_R4_AddSpatialJoin_1.OBJECTID_1":191,"Reach_R4_AddSpatialJoin_1.FNODE_":16464,"Reach_R4_AddSpatialJoin_1.TNODE_":16781,"Reach_R4_AddSpatialJoin_1.STRNAME":"Un-named","Reach_R4_AddSpatialJoin_1.GLOBALID":"3e632323-3ae9-4714-81dd-3b3703f09596","Reach_R4_AddSpatialJoin_1.created_us":" ","Reach_R4_AddSpatialJoin_1.created_da":" ","Reach_R4_AddSpatialJoin_1.last_edite":" ","Reach_R4_AddSpatialJoin_1.last_edi_1":" ","Reach_R4_AddSpatialJoin_1.SHAPE_STLe":" ","Reach_R4_AddSpatialJoin_1.OBJECTID_2":159,"Reach_R4_AddSpatialJoin_1.SHAPE__Len":10567.314592500001,"Reach_R4_AddSpatialJoin_1.Shape_Leng":10567.314423,"Reach_R4_AddSpatialJoin_1.Reach_ID":"R4","Reach_R4_AddSpatialJoin_1.FullName":"R4 Un-named","Reach_R4_AddSpatialJoin_1.Length":1305.174680781729,"Reach_R4_AddSpatialJoin_1.Percent":4.8776308492303464,"Reach_R4_AddSpatialJoin_1.Shape_Length":1305.1088937948296}}]}