{"type":"FeatureCollection","features":[{"type":"Feature","id":1,"geometry":{"type":"LineString","coordinates":[[-104.90152880572164,39.390698500920969],[-104.90176689849159,39.390121104009403],[-104.90200351081683,39.389549172129335],[-104.9023864665272,39.38913963286722],[-104.90289576921613,39.388583001516039],[-104.90314453669399,39.387813584257287],[-104.90282784484049,39.387053866314865],[-104.90226662244341,39.386004566956451],[-104.90185949837101,39.3854526611496],[-104.90155608987313,39.384811983234989],[-104.90098986201326,39.384456645497217],[-104.90080831093577,39.384441620939967],[-104.90049952393458,39.384435328031465],[-104.90036048718753,39.384406426852969],[-104.90015493170438,39.384367783219609],[-104.89996234306687,39.384225810302325],[-104.89979926372203,39.384177977782485],[-104.89967174656923,39.384219629160235],[-104.89956194855672,39.384313057268415],[-104.89946491978665,39.38432665229579],[-104.89936199617033,39.384326125160221],[-104.89921704862303,39.384278386660732],[-104.89911508880118,39.384165065593663],[-104.89907928007227,39.383981240192895]]},"properties":{"OBJECTID":1,"OBJECTID_1":191,"FNODE_":16464,"TNODE_":16781,"STRNAME":"Un-named","Reach_ID":"R6","GLOBALID":"3e632323-3ae9-4714-81dd-3b3703f09596","created_us":" ","created_da":" ","last_edite":" ","last_edi_1":" ","SHAPE_STLe":" ","OBJECTID_2":159,"SHAPE__Len":10567.314592500001,"Shape_Leng":10567.314423,"Shape_Length":3220.566728225102,"FullName":"R6 Un-named","Length":3220.7331779246533,"Percent":12.036356310847074}},{"type":"Feature","id":2,"geometry":{"type":"LineString","coordinates":[[-104.92557254364506,39.427663661359325],[-104.92546815585708,39.427625261215056],[-104.92504481844175,39.427309092698486],[-104.92459404909896,39.426949613929814],[-104.9241620348898,39.426468941314681],[-104.92363075988109,39.425983911631981],[-104.9232496998676,39.425648176101497],[-104.92292683696914,39.425385849695424],[-104.92268910258149,39.425243670647212],[-104.92263729030711,39.425162055834129],[-104.92253301478017,39.425085238393208],[-104.92246163991966,39.424993368156791],[-104.92248210725879,39.424896824441561],[-104.92252892479134,39.424785174988045],[-104.92262189486286,39.424643252908425],[-104.92272908543673,39.424364078268738],[-104.92300028612728,39.424075529232496],[-104.92315241763094,39.423913558716137],[-104.92340338525705,39.423696110553074],[-104.92345015898326,39.423589538138621],[-104.9234682372873,39.423467656375784],[-104.92344958918193,39.423385243990509],[-104.92333178319838,39.423242512420899],[-104.92309833983768,39.423081731764526],[-104.92291933346404,39.422948650941102],[-104.92288756812012,39.422901111149244],[-104.92289790769975,39.422816369763943],[-104.92299584937663,39.422639763292239],[-104.9230414955905,39.422562656001759],[-104.92304204696138,39.422495322435431],[-104.92296266462544,39.422372731802902],[-104.92294718052067,39.422300310042004],[-104.92295096700609,39.422230499973779],[-104.92295516446335,39.422110791877373],[-104.92299163609246,39.421976302572325],[-104.92307944852331,39.421854511206881],[-104.92315731160009,39.42177010234672],[-104.92322852607344,39.421715565418054],[-104.92335463732783,39.421628899765395],[-104.92348427772838,39.4215073158121],[-104.92363969248689,39.421375904116481],[-104.92373340401919,39.421319006762609],[-104.9238591976702,39.421274712211698],[-104.92402338813922,39.421253074302264],[-104.92419038030249,39.421278835040383],[-104.92431555981732,39.421309377610946],[-104.92441144846642,39.421379700118393],[-104.92446553634919,39.421449794635656],[-104.92450993986471,39.421524828216484],[-104.92456729523079,39.421592468820997],[-104.92460880786749,39.421627586672081],[-104.92463776764156,39.421625235596956],[-104.92477323688024,39.421573529206526],[-104.92482505695615,39.421531387964848],[-104.92485106344155,39.421496578337212],[-104.92492306242919,39.421342310782173],[-104.92501831989127,39.421095838151608],[-104.92502513799529,39.421048487418929],[-104.92497139467619,39.420936000016347],[-104.924920376624,39.420883355236398],[-104.92477354616639,39.420747964315623],[-104.92461863455097,39.420644542437522],[-104.92446635964338,39.420561885291463],[-104.92442787890633,39.420549226812071],[-104.92429941098926,39.420531137573029],[-104.92423202459702,39.420510856036152],[-104.92406888434692,39.420407780299278],[-104.92391253081023,39.420257356196608],[-104.92381658515312,39.420194536401034],[-104.92373361146144,39.420114325185551],[-104.92360618625526,39.419969030557226],[-104.92353305234464,39.419868914609289],[-104.92349557212941,39.41973403765676],[-104.92345148888528,39.419616584249944],[-104.92345556039594,39.419511861585583],[-104.92353508182647,39.419227928708914],[-104.92355561570089,39.419075879401817],[-104.92364310362956,39.418517427461516],[-104.92340545139342,39.418169744928754],[-104.92336385860335,39.418144601367516],[-104.92321625997292,39.418103973064383],[-104.92319070206405,39.41808389688466],[-104.92311089568912,39.418013675021605],[-104.92276649405848,39.417662788177694],[-104.92257846962367,39.417454845728287],[-104.92252078164999,39.417432116747023],[-104.92230583004059,39.4173712039482],[-104.92226419839103,39.417351046474081],[-104.92211088813116,39.41722307936238],[-104.92203132810273,39.417122931571512],[-104.92195258911927,39.416923009144931],[-104.92189971218373,39.416705757326788],[-104.92183361942953,39.416528341779475],[-104.92167489353712,39.416280617446468],[-104.92166575870645,39.416218226220181],[-104.92167569058579,39.416183361292312],[-104.9217081888636,39.416141125066943],[-104.92182320817108,39.41603569173887],[-104.92195971472114,39.415957131728298],[-104.92213270231007,39.415739164127196],[-104.92229986689756,39.415353392190575],[-104.92237294765488,39.415066932873607],[-104.92238617643225,39.415022084651213],[-104.92241214297061,39.414992286316014],[-104.92244778252699,39.414962535677056],[-104.92255772487064,39.414885767109688],[-104.9226067261819,39.414791218500689],[-104.92243892449342,39.414420151543759],[-104.92215206084981,39.414062065263671],[-104.92206934131612,39.413782913552254],[-104.92201256416136,39.41363876536569],[-104.92189465547061,39.413410392098108],[-104.92171947723109,39.413097814415622],[-104.92171204691776,39.413061811621944],[-104.92174777931926,39.412945095514033],[-104.9217445308724,39.412870148586258],[-104.92173328414536,39.41282813229649],[-104.92166457190417,39.412725886625253],[-104.92153819891598,39.412587388206781],[-104.92150768401991,39.412539282065445],[-104.92159937867331,39.412195074444767],[-104.9217832117464,39.411923234091532],[-104.92204436642619,39.411645779498393],[-104.92222849124154,39.411337971039899],[-104.92237648987327,39.411194834823263],[-104.92258246853433,39.411048985626607],[-104.92280003706627,39.410903193189689],[-104.92293641839169,39.410762994976103],[-104.92296087712575,39.410607258087047],[-104.9229385278939,39.410505242439349],[-104.92287360918576,39.410412006735335],[-104.92275843460978,39.41032152286634],[-104.92268153051739,39.41027618431135],[-104.92243511826283,39.410170066886934],[-104.92225456144995,39.410043292103346],[-104.92221639114028,39.40998615500871],[-104.92218653924502,39.409857127577418],[-104.92213269423918,39.409826887712519],[-104.92204014076847,39.409805451028291],[-104.92195893205415,39.40981404264808],[-104.92186987181086,39.409837580740181],[-104.92167140128187,39.410010441300074],[-104.92146968175936,39.41010835362431],[-104.92126067843137,39.410152278604357],[-104.92084707369014,39.4101742125059],[-104.92059212392363,39.4101669576375],[-104.92036852776515,39.410105905497005],[-104.9201681108247,39.410044968595471],[-104.91998659636357,39.410035078199748],[-104.91958490456652,39.410018101826175],[-104.91922581524254,39.409992343824243],[-104.91902921681118,39.409937418559437],[-104.91888690487916,39.409858783725483],[-104.91880259885589,39.409774442851408],[-104.91875682884064,39.40970228160073],[-104.91874969356807,39.409630312095459],[-104.91877148479588,39.409562971118582],[-104.91877932050411,39.408380606578874],[-104.91875296782759,39.408296554148023],[-104.91869947159036,39.408224353591812],[-104.91859954019306,39.408160916720909],[-104.91849197064153,39.408077803129025]]},"properties":{"OBJECTID":2,"OBJECTID_1":191,"FNODE_":16464,"TNODE_":16781,"STRNAME":"Un-named","Reach_ID":"R1","GLOBALID":"3e632323-3ae9-4714-81dd-3b3703f09596","created_us":" ","created_da":" ","last_edite":" ","last_edi_1":" ","SHAPE_STLe":" ","OBJECTID_2":159,"SHAPE__Len":10567.314592500001,"Shape_Leng":10567.314423,"Shape_Length":10034.787073434165,"FullName":"R1 Un-named","Length":10035.27751990435,"Percent":37.503316554038449}},{"type":"Feature","id":3,"geometry":{"type":"LineString","coordinates":[[-104.91849197064153,39.408077803129025],[-104.9183691895965,39.407982935331184],[-104.91781410443059,39.407592044589585],[-104.91687150044855,39.406878494589023],[-104.91665755581933,39.40640777350449]]},"properties":{"OBJECTID":3,"OBJECTID_1":191,"FNODE_":16464,"TNODE_":16781,"STRNAME":"Un-named","Reach_ID":"R2","GLOBALID":"3e632323-3ae9-4714-81dd-3b3703f09596","created_us":" ","created_da":" ","last_edite":" ","last_edi_1":" ","SHAPE_STLe":" ","OBJECTID_2":159,"SHAPE__Len":10567.314592500001,"Shape_Leng":10567.314423,"Shape_Length":814.71799842242592,"FullName":"R2 Un-named","Length":814.75860650779703,"Percent":3.0448734351773461}},{"type":"Feature","id":4,"geometry":{"type":"LineString","coordinates":[[-104.91665755581933,39.40640777350449],[-104.91659638660587,39.40627319010634],[-104.91643264213373,39.405984638437168],[-104.91623257074063,39.405887729292942],[-104.91602055697896,39.405829724217263],[-104.91590076575559,39.405832123644629],[-104.9158232758755,39.405858713544006],[-104.91566811968838,39.405932870483475],[-104.91557886341957,39.405980380582271],[-104.9154820043229,39.406012866451704],[-104.91536607917061,39.406015284631188],[-104.91526577974503,39.405996800746088],[-104.91520817720253,39.40595455224625],[-104.9151812825571,39.40593643303832],[-104.91517375452942,39.405912418583206],[-104.91518559429259,39.405882505287423],[-104.91530700073002,39.405685292086773],[-104.9153151243579,39.405637378026569],[-104.9152731251843,39.40557722346292],[-104.9152232499311,39.40553501264818],[-104.91515024366703,39.405486691622073],[-104.91504839459175,39.40542754236764],[-104.91479934864476,39.405404013742682],[-104.91382919773937,39.405453111673985],[-104.91350485158137,39.40543050676358],[-104.91332337257242,39.405417608357681],[-104.91320383266549,39.405390033849244],[-104.91313087784572,39.405335718046267],[-104.91310453305924,39.405251662475159],[-104.91309359337284,39.405173679675293],[-104.91310184440961,39.405110779274807],[-104.91314105058044,39.405042039344245],[-104.91323035722004,39.404988535773633],[-104.91342868463565,39.404833672542445],[-104.91345221328844,39.404791828626188],[-104.91346422820655,39.404740934582676],[-104.91343003049882,39.404671827758754],[-104.91338788499436,39.404629654862809],[-104.91333434713019,39.404563447104493],[-104.9132497772834,39.404512070952649],[-104.91308408113643,39.404460287250082],[-104.91304956061653,39.40443014178237],[-104.91299652133037,39.404303990577638],[-104.91288119813846,39.404234475078844],[-104.9127271163279,39.404179753111819],[-104.91253417482723,39.404151809752179],[-104.91227515995016,39.404171490918621],[-104.91214395912849,39.404152848332515],[-104.91185087448255,39.404088434850294],[-104.91175845676138,39.404052003511744],[-104.91168505205142,39.403875232013554],[-104.91161345167151,39.403835495703312],[-104.91134362533262,39.403762206246803],[-104.91128567531224,39.403761914915052],[-104.91120055822424,39.403776473179761],[-104.91113857011179,39.403797141465368],[-104.91108779817252,39.403862824802729],[-104.91106399176411,39.403937637097705],[-104.91105551498248,39.404027489292098],[-104.91104756163743,39.404054423953937],[-104.91100503988309,39.404057207866153],[-104.9108661629344,39.404032531465376],[-104.91076634459279,39.403957119720872],[-104.91069341702406,39.403899806515021],[-104.9105932745597,39.403863334474316],[-104.91037346954903,39.40381427232883],[-104.9102848131141,39.403789847198674],[-104.91023942575184,39.403761569321539],[-104.91006161654722,39.403441500435399],[-104.90971982756044,39.402977743286591],[-104.90963614211223,39.402821464424733],[-104.90954748146078,39.402675623836267]]},"properties":{"OBJECTID":4,"OBJECTID_1":191,"FNODE_":16464,"TNODE_":16781,"STRNAME":"Un-named","Reach_ID":"R3","GLOBALID":"3e632323-3ae9-4714-81dd-3b3703f09596","created_us":" ","created_da":" ","last_edite":" ","last_edi_1":" ","SHAPE_STLe":" ","OBJECTID_2":159,"SHAPE__Len":10567.314592500001,"Shape_Leng":10567.314423,"Shape_Length":3221.7327765985365,"FullName":"R3 Un-named","Length":3221.8941271658732,"Percent":12.040694949894204}},{"type":"Feature","id":5,"geometry":{"type":"LineString","coordinates":[[-104.90954748146078,39.402675623836267],[-104.90941133304202,39.402451668770311],[-104.90927286531183,39.401917459669818],[-104.90906267738639,39.401643649086353],[-104.90866493490684,39.401162079735293],[-104.90840881911602,39.400921646670042],[-104.90818160337511,39.400752011601092],[-104.90764793302057,39.400356672995677],[-104.90738622617569,39.400238455709513],[-104.90715123410595,39.4001593371475],[-104.90691934855336,39.400170151310014],[-104.90671958736229,39.400195749214802]]},"properties":{"OBJECTID":5,"OBJECTID_1":191,"FNODE_":16464,"TNODE_":16781,"STRNAME":"Un-named","Reach_ID":"R4","GLOBALID":"3e632323-3ae9-4714-81dd-3b3703f09596","created_us":" ","created_da":" ","last_edite":" ","last_edi_1":" ","SHAPE_STLe":" ","OBJECTID_2":159,"SHAPE__Len":10567.314592500001,"Shape_Leng":10567.314423,"Shape_Length":1305.1088937948296,"FullName":"R4 Un-named","Length":1305.174680781729,"Percent":4.8776308492303464}},{"type":"Feature","id":6,"geometry":{"type":"LineString","coordinates":[[-104.90671958736229,39.400195749214802],[-104.90667183475664,39.400201868546816],[-104.90631936260394,39.400310980356721],[-104.90585033795782,39.400497427863904],[-104.90561042370943,39.400544166767304],[-104.90548165607038,39.400549004183439],[-104.90507522497366,39.400436316233424],[-104.9046423949564,39.400233940878969],[-104.90440655191654,39.40002204045993],[-104.90431895828962,39.399942591219983],[-104.90424460390251,39.399905330566057],[-104.90395319853508,39.399840630925226],[-104.90387903698502,39.399777036764156],[-104.90380553066493,39.399639703671006],[-104.9037190534677,39.399428563148845],[-104.90359867924498,39.399211987550231],[-104.90347727931173,39.399116554991373],[-104.90320006701653,39.398978182613043],[-104.90305856091169,39.398851027997409],[-104.90303198249654,39.398782413502346],[-104.90303273978259,39.39869286555578],[-104.90307407288974,39.39862459638659],[-104.90308536280793,39.398492958300793],[-104.90299094454615,39.398418734674593],[-104.90276118178053,39.398291152158016],[-104.9025719496921,39.398190087739913],[-104.90240984585833,39.398089184889976],[-104.90236342740045,39.397957251404179],[-104.90237153394906,39.397804524288134],[-104.90250850274866,39.397663001133537],[-104.90253659835648,39.397552520741975],[-104.9025380716775,39.397378710349599],[-104.90251140511074,39.397320619956304],[-104.90241658942448,39.397293801804238],[-104.90200277537332,39.397254806667554],[-104.90186064778227,39.397201411241177],[-104.90181427559573,39.397064215383573],[-104.90182175840867,39.396985248979355],[-104.90185614536682,39.396932733577977],[-104.90189722590674,39.396890821200174],[-104.90205401879017,39.396817856324795],[-104.90210884099655,39.396754943022998],[-104.90210259508082,39.396691694447107],[-104.90205607418299,39.396575570736793],[-104.90185383441043,39.396405958713864],[-104.90182734508254,39.396326819640755],[-104.90190950582371,39.396242949840115],[-104.90223682964148,39.396076065786808],[-104.9025202346082,39.395718985048553],[-104.90253612735789,39.395566091288778],[-104.90250652923612,39.395429347859768],[-104.90244632469037,39.395390008037666],[-104.90231121907019,39.395392131562588],[-104.90222750956924,39.395363380102708],[-104.90219891420966,39.395289583672294],[-104.90222871061498,39.395221759378003],[-104.9022765171711,39.395179492958214],[-104.90232418198265,39.395157085281127],[-104.902357032016,39.395157252065566],[-104.90246640766557,39.395177648181409],[-104.90252851956538,39.395169452786227],[-104.90260547481564,39.395135845538441],[-104.9027897075251,39.394938510322852],[-104.90283111810241,39.394812218763086],[-104.90281702374801,39.394731838773296],[-104.90283917327419,39.394703625830665],[-104.90289758713524,39.394703923746746],[-104.9029814400978,39.394715676855292],[-104.90300344441859,39.394704462653671],[-104.90302568860069,39.394664926458518],[-104.9030225607779,39.394602585570468],[-104.90297973288727,39.394489043712149],[-104.90292588149845,39.394378304693561],[-104.90276252436102,39.394269822041885],[-104.90274092706629,39.39423287448556],[-104.90274854525013,39.394193263726876],[-104.9027780791545,39.394156577894414],[-104.90284409184481,39.394122914669687],[-104.9030264702467,39.394140844234656],[-104.90307764810937,39.394135453676462],[-104.90311071251909,39.394110111263572],[-104.90311838469118,39.394067663299744],[-104.90313343613732,39.394013926549604],[-104.90303740430282,39.39385266037587],[-104.90280050016811,39.393622882053862],[-104.9024170272117,39.393464769826977],[-104.90235950177076,39.393398285090726],[-104.90228529445096,39.393351598077587],[-104.90222869908726,39.393342065331005],[-104.9021420097167,39.393362443320513],[-104.90210921146867,39.393359965334504],[-104.90204392805768,39.393317966357991],[-104.90199971939046,39.393252922239959],[-104.90197931474096,39.3931972669169],[-104.90196950356999,39.393123131250498],[-104.90191066915443,39.393023281010883],[-104.9018727776195,39.392918938348586],[-104.90185650982902,39.392726709837738],[-104.90177996504457,39.392608258005943],[-104.90157413978382,39.392316929733035],[-104.90128631346502,39.391977110716127],[-104.9011791414237,39.391760394239078],[-104.90116926008932,39.391497178896905],[-104.90141598062714,39.390972111827082],[-104.90152880572164,39.390698500920969]]},"properties":{"OBJECTID":6,"OBJECTID_1":191,"FNODE_":16464,"TNODE_":16781,"STRNAME":"Un-named","Reach_ID":"R5","GLOBALID":"3e632323-3ae9-4714-81dd-3b3703f09596","created_us":" ","created_da":" ","last_edite":" ","last_edi_1":" ","SHAPE_STLe":" ","OBJECTID_2":159,"SHAPE__Len":10567.314592500001,"Shape_Leng":10567.314423,"Shape_Length":5311.4251188475137,"FullName":"R5 Un-named","Length":5311.6952396561583,"Percent":19.850590839794005}},{"type":"Feature","id":7,"geometry":{"type":"LineString","coordinates":[[-104.89907928007227,39.383981240192895],[-104.89906285875399,39.3838969417545],[-104.89905230305716,39.383713619787507],[-104.89899358916385,39.383497148595346],[-104.8988433914089,39.383360080883179],[-104.89867452010601,39.383279340267173],[-104.89840918555608,39.383146395192661],[-104.89828347439402,39.382976574009319],[-104.89826691849541,39.382788508179843],[-104.89826159670189,39.382703893726863],[-104.89826872230717,39.382577037995027],[-104.8982933173008,39.3825348816763],[-104.89839063443655,39.38248369674136],[-104.89842147373197,39.382418053048532],[-104.89842263767703,39.382281785910614],[-104.89822022812524,39.381871903642882],[-104.89820495518678,39.381533454126171],[-104.89826058942567,39.38140215644728],[-104.89835838745644,39.381294575979844],[-104.89837142488403,39.381186558030805],[-104.89843862566167,39.381116409910796],[-104.89879231838955,39.38082687320307],[-104.8988443285625,39.380670916596664],[-104.89879564430925,39.380436856589014],[-104.89870021274825,39.380267192125963],[-104.89843521042729,39.380096633747421],[-104.89839941021363,39.380035360441376],[-104.89805611241469,39.379107827143407],[-104.89790733898288,39.3788016143954],[-104.89787837725054,39.378651075990511],[-104.89790350402762,39.378543119304034],[-104.89812533034684,39.378093114285065],[-104.89813836753949,39.377985096273065],[-104.89770038484079,39.376930593594437]]},"properties":{"OBJECTID":7,"OBJECTID_1":191,"FNODE_":16464,"TNODE_":16781,"STRNAME":"Un-named","Reach_ID":"R7","GLOBALID":"3e632323-3ae9-4714-81dd-3b3703f09596","created_us":" ","created_da":" ","last_edite":" ","last_edi_1":" ","SHAPE_STLe":" ","OBJECTID_2":159,"SHAPE__Len":10567.314592500001,"Shape_Leng":10567.314423,"Shape_Length":2848.6913785035631,"FullName":"R7 Un-named","Length":2848.8401520255261,"Percent":10.646537061018583}}]}