{"type":"FeatureCollection","features":[{"type":"Feature","id":1,"geometry":{"type":"LineString","coordinates":[[-104.9084662993165,39.398761759704634],[-104.90842932255453,39.398845693871827],[-104.90842932202166,39.398856408626358],[-104.9084316337054,39.39885819393799],[-104.90843163390736,39.398861766425505],[-104.90843394443033,39.398863551731289],[-104.90843394463992,39.398867123318006],[-104.90843557813353,39.398870172598201],[-104.90843625587591,39.398873526917377],[-104.90843856690246,39.398876358929826],[-104.90843856711233,39.398879930516614],[-104.90844087762851,39.398881716722954],[-104.90844127399055,39.398884982244986],[-104.90844549887906,39.398888859821469],[-104.90844589640228,39.398892125349377],[-104.90845243296948,39.398897789137642],[-104.90845434818885,39.398900747961385],[-104.90845761613714,39.398903274039426],[-104.90846151275979,39.398904625976321],[-104.90848016517124,39.398918786759822],[-104.90848231208901,39.398920699148583],[-104.90848597656429,39.39892605657338],[-104.90848940944493,39.398928021398071],[-104.90848964220105,39.398931414003933],[-104.908493518772,39.39893280367108],[-104.9084951522772,39.398935852049618],[-104.90849865370588,39.398937257837062],[-104.90851252033089,39.398947972382402],[-104.90851314808691,39.398951058016586],[-104.90851545977588,39.398952843326541],[-104.90851945190738,39.398953329195244],[-104.90852239229233,39.398954629459155],[-104.90852470397411,39.398956415669616],[-104.9085286972668,39.398956901543897],[-104.90853163649869,39.39895820090095],[-104.90853625849479,39.398958200828204],[-104.90853856901607,39.398959987032548],[-104.90854319217324,39.398959986965437],[-104.90854695198217,39.398961594029323],[-104.90855147843624,39.398961772728278],[-104.90855514270315,39.398963558564134],[-104.90856207638261,39.398965344700258],[-104.90856438807329,39.398967130009211],[-104.90856901007004,39.398967129935222],[-104.90857132059237,39.398968916138919],[-104.90857594258924,39.398968916064604],[-104.90858191854082,39.398972488109109],[-104.90858654053793,39.398972488034374],[-104.9085888510609,39.398974274237752],[-104.90859347305812,39.398974274162768],[-104.90859578474988,39.398976059471138],[-104.90860038669331,39.398976097127232],[-104.90860727199929,39.398978944133049],[-104.9086095825306,39.398980729435308],[-104.90861331522959,39.398981416665549],[-104.90861562691451,39.398983202874263],[-104.90862214307853,39.398985766071156],[-104.90862391339371,39.398988561119324],[-104.90862853561134,39.398992132629637],[-104.90863269251506,39.398992491416152],[-104.90863315783693,39.398995703239052],[-104.9086377788945,39.398999274743076],[-104.90864158938487,39.399000791982068],[-104.90865762150429,39.399013562213085],[-104.90865811487198,39.399016752558765],[-104.90866224372519,39.399017133722062],[-104.9086627359322,39.399020324061837],[-104.90868584586896,39.399038183399298],[-104.90868766441835,39.399040349946873],[-104.90869046809291,39.399041754907095],[-104.90869228664259,39.399043921454613],[-104.90869278000451,39.399047112700856],[-104.90869637691394,39.399048486536486],[-104.90869826282945,39.399051065079703],[-104.90870057336545,39.399052850380095],[-104.90870202380835,39.399055301515943],[-104.908704334337,39.399057087717011],[-104.90870519580692,39.399059994374646],[-104.90871126731582,39.399066017011549],[-104.90871212879364,39.399068922768421],[-104.908716751021,39.39907249427516],[-104.90871820146485,39.399074945410824],[-104.90872051199457,39.399076731611522],[-104.90872137230441,39.399079638263196],[-104.90872513422282,39.39908030311792],[-104.90872513444721,39.399083874704502],[-104.90872830623157,39.399084995075249],[-104.90873061792284,39.399086781281582],[-104.90873206720659,39.399089232411221],[-104.90874131049785,39.399096376317786],[-104.90874217197732,39.399099282074367],[-104.90874448250838,39.399101068274604],[-104.90874824442061,39.399101734029351],[-104.90875048678879,39.399104587307384],[-104.90875739125066,39.399109997114785],[-104.90875748846409,39.39911349442648],[-104.90876904346207,39.399122423635866],[-104.90877135451016,39.399125255641614],[-104.90878753174698,39.399137756353454],[-104.90878984279632,39.399140588358833],[-104.90879908726868,39.399147731365872],[-104.9087993866614,39.399151071161377],[-104.90880169835661,39.399152857366268],[-104.90880602003996,39.399153089068086],[-104.90880602026844,39.399156660654612],[-104.90881295304867,39.399162017455673],[-104.90881325360304,39.39916535725699],[-104.90881988604396,39.399170947644286],[-104.90882018659869,39.399174287445597],[-104.9088245082835,39.399174519146733],[-104.90882982710247,39.399183215990348],[-104.90883375262824,39.399183754657876],[-104.90883444934325,39.399186787492333],[-104.90883675987958,39.399188573690729],[-104.90883837393835,39.399190897740318],[-104.90884299618013,39.399194469241976],[-104.90884735833563,39.399199288809612],[-104.90884906851895,39.399202195247028],[-104.90885224052236,39.399203705652383],[-104.90885686160466,39.39920727714761],[-104.90885917354183,39.399212634037134],[-104.90886148524059,39.39921442024081],[-104.90886379485647,39.399219777118503],[-104.90886610655558,39.399221563322122],[-104.90886610678712,39.399225134908605],[-104.9088730400881,39.399231538412749],[-104.9088731761081,39.399238576878908],[-104.90887534992986,39.399240467777332],[-104.90887544678664,39.399244008324345],[-104.908879151401,39.399249292075005],[-104.90887997315069,39.399252229157092],[-104.90888228369788,39.399254014453774],[-104.9088822841625,39.399261157626604],[-104.90888459470249,39.399262943823992],[-104.90888459493488,39.399266515410417],[-104.90888690570766,39.399271873194145],[-104.90888690594024,39.399275444780571],[-104.90888921648076,39.399277230977845],[-104.90889070667222,39.399279650784614],[-104.90889152842276,39.399282587866608],[-104.90889152772733,39.399289731033541],[-104.90889383827601,39.399291516329974],[-104.90889532846037,39.39929393703742],[-104.90889615021128,39.399296874119344],[-104.90889614950878,39.399304018186982],[-104.90889995048371,39.399311794876368],[-104.90890077129968,39.399318304439504],[-104.90890308301049,39.399320089741614],[-104.9089030834697,39.399327233815065],[-104.90890539336894,39.399330065812158],[-104.90890592671342,39.399336797316955],[-104.90890971509339,39.399341922952402],[-104.90891001660836,39.399359685116195],[-104.90891232715978,39.399361470412266],[-104.90891232645893,39.399368614479769],[-104.90891463817169,39.399370399781638],[-104.90891463840569,39.399373971367943],[-104.90891695011869,39.399375756669748],[-104.90891694919178,39.399379328250212],[-104.90891926048845,39.399385731839104],[-104.90891925978829,39.399392875906585],[-104.90892157150203,39.399394661208291],[-104.90892157172883,39.399398233695322],[-104.90892388135526,39.399403590571538],[-104.90892388158973,39.399407162157836],[-104.908926193304,39.399408947459442],[-104.90893081486554,39.399419663024865],[-104.90893081510032,39.399423234611078],[-104.90893312680781,39.399425020813332],[-104.90893312588172,39.399428592393733],[-104.9089377481438,39.399432163891412],[-104.90894006009458,39.39943752077901],[-104.90894237064174,39.399439306975147],[-104.9089446814246,39.399444664757532],[-104.90894930368833,39.399448236254713],[-104.90895161447193,39.399453594036949],[-104.90895392502755,39.39945537933211],[-104.9089539252635,39.399458950918365],[-104.90895716485045,39.39946001847899],[-104.90895854752864,39.399462522415192],[-104.90896085807711,39.399464308610945],[-104.90896317002314,39.399469666398801],[-104.9089654805795,39.399471451693749],[-104.90896872063313,39.399479663327234],[-104.90897103118242,39.399481449522796],[-104.90897470514777,39.399486790765124],[-104.9089783611975,39.399488591859047],[-104.90897934656284,39.399491401855592],[-104.90898490596791,39.399494673618634],[-104.90898627990035,39.399497805352617],[-104.90898885121877,39.399499508190907],[-104.90899262310306,39.39950466436656],[-104.90899724653416,39.399508235867685],[-104.90899783457887,39.399511352825492],[-104.9090001462985,39.39951313812562],[-104.9090041793559,39.3995135935577],[-104.90900476740102,39.399516710515471],[-104.90900707964001,39.399519541621352],[-104.90900939019163,39.399521327816167],[-104.90901246617354,39.399522522459954],[-104.90901401246367,39.399524899310748],[-104.90901863473619,39.399528470805166],[-104.90902171071853,39.399529665448689],[-104.90902379717387,39.399531869373959],[-104.90902768557937,39.399533237464048],[-104.90903250066751,39.399536660401893],[-104.90904405628176,39.399546636289777],[-104.90904867739627,39.399550207777132],[-104.90905180984078,39.399551730588037],[-104.90905350353067,39.399554667565376],[-104.90908334325214,39.399578040217676],[-104.90908354798685,39.39958145519963],[-104.90908796552415,39.399581612610014],[-104.90908816910564,39.399585026685379],[-104.90910645372206,39.399599471055623],[-104.9091149448183,39.399604670859425],[-104.90911569764641,39.399607659836811],[-104.90911956594019,39.399608242343902],[-104.90912187765852,39.399610028542284],[-104.90912418822352,39.399611813834063],[-104.90912494220555,39.399614803717995],[-104.90912881050735,39.399615385324033],[-104.90912956332863,39.399618375202053],[-104.90913297633566,39.399619808447994],[-104.90913478678691,39.399622528925732],[-104.9091370973527,39.39962431421722],[-104.90914111873208,39.39962477859337],[-104.90914616593655,39.39962821350705],[-104.90914805209738,39.399631182080604],[-104.90915036265625,39.399632968272549],[-104.90915462827336,39.399633243816517],[-104.90915693884001,39.3996350291076],[-104.90915867851652,39.399637882543018],[-104.90916422863098,39.399641156952718],[-104.90916522569121,39.399643957998812],[-104.90916885091873,39.39964472844111],[-104.90917116200001,39.399647560438552],[-104.90918505679838,39.399658266936186],[-104.90918733878085,39.399661107794252],[-104.9091942719058,39.399663939692644],[-104.90919621512359,39.399666888736107],[-104.90920068408678,39.399670745896941],[-104.90920247096004,39.399673509492011],[-104.90920582693239,39.399674960463514],[-104.90921045038543,39.399678531956077],[-104.90921128267823,39.399681460080828],[-104.90921507150945,39.399682104337451],[-104.90921969380251,39.39968567582379],[-104.90922650305978,39.399688603478481],[-104.90923818127501,39.399697533261104],[-104.90926221597101,39.39971689063541],[-104.90926369598465,39.399718033983284],[-104.90926665349645,39.399723945396872],[-104.90926690708812,39.39972831995339],[-104.90926813235568,39.399729659286329],[-104.90926813293187,39.399731945463756],[-104.90926961179248,39.399733087904956],[-104.9092696117914,39.3997376593532],[-104.90927109064461,39.399738802695119],[-104.90927109005986,39.399741088866676],[-104.90927257008171,39.399742231313702],[-104.90927282308154,39.399748892942476],[-104.90927404834963,39.399750232275345],[-104.90927430251894,39.399752321561003],[-104.90927552778706,39.399753660893886],[-104.90927552837098,39.399755946170608],[-104.9092770072247,39.399757089512427],[-104.90927823249403,39.399758982823748],[-104.90927848685814,39.399761187409908],[-104.90927996455103,39.399762330745844],[-104.90927996512757,39.399764616923257],[-104.90928144515001,39.399765759370169],[-104.90928144457318,39.399768044640936],[-104.9092844022813,39.399770331324447],[-104.90928588133882,39.399772143044473],[-104.90928736076974,39.39977557256357],[-104.90928934680257,39.399776323022358],[-104.90929082624135,39.399779751640665],[-104.90929760896289,39.399784323077029],[-104.90930056726354,39.399784322687822],[-104.90930510900276,39.399787671272108],[-104.90931387872266,39.399787752444652],[-104.90931546276015,39.399788813445049],[-104.90932127417935,39.399788895006637],[-104.90932718961518,39.399793466570031],[-104.90932729420724,39.399795671301312],[-104.90932866904862,39.399796896088546],[-104.90932877364069,39.39979910081987],[-104.90933025250374,39.399800243260295],[-104.90933025308942,39.399802528536888],[-104.90933162676997,39.399803753318302],[-104.90933173195523,39.399831101467704],[-104.90933035747838,39.399832326798347],[-104.90933025308684,39.399834531376193],[-104.90932887978602,39.399835754911216],[-104.90932877365054,39.399840245654687],[-104.90932739918863,39.399841469183819],[-104.90932729479697,39.399843673761637],[-104.90932592148839,39.399844898197351],[-104.90932581651371,39.399849388946706],[-104.90932444205151,39.399850612475788],[-104.90932433591578,39.399855103219245],[-104.90932285783335,39.399856915334396],[-104.90932137897158,39.399860344342024],[-104.90931989953184,39.399861487172259],[-104.90931990010964,39.399863773349594],[-104.90931842125514,39.399867201456452],[-104.90931842124969,39.399871773805259],[-104.90931694180965,39.399872916635466],[-104.90931694122639,39.399875202806953],[-104.90931546237145,39.399878630913776],[-104.90931398292372,39.399879774644681],[-104.90931398350888,39.399882059921254],[-104.90931250425712,39.399883872931127],[-104.90931250484222,39.399886158207728],[-104.90931102540176,39.399887301037886],[-104.90931087659574,39.399891757336427],[-104.90930954712384,39.399893015321894],[-104.90930939715065,39.399902043963408],[-104.90930806651755,39.399903301942985],[-104.909308066519,39.399907873391037],[-104.90930658823903,39.399909016226935],[-104.90930658881418,39.399929589097113],[-104.90930510937277,39.399930731927128],[-104.90930510879281,39.399946732442636],[-104.90930496056235,39.399948903470388],[-104.90930362992832,39.399950161449929],[-104.90930363050788,39.399961590523176],[-104.90930215105817,39.399962734253911],[-104.90930215048198,39.399965019524608],[-104.90930067220071,39.399966162360464],[-104.90930067161689,39.39996844853188],[-104.90929919217459,39.399969591361817],[-104.90929904452854,39.399974047666149],[-104.90929771389395,39.39997530564559],[-104.9092975645022,39.399977476667516],[-104.90929327614313,39.399981020312531],[-104.90929312791219,39.399983191340326],[-104.90929031783449,39.399985592149541],[-104.90928588162754,39.39999264628073],[-104.90928588105082,39.399994931551426],[-104.90928400017546,39.399995763389192],[-104.90928292332546,39.399997217216765],[-104.90928252131641,39.399999191495418],[-104.90927996501547,39.400001789053462],[-104.90927996559952,39.400004074329978],[-104.90927700671264,39.400006359989327],[-104.90927700728906,39.40000864616659],[-104.90927257011165,39.40001207556206],[-104.90927216810221,39.400014049840692],[-104.90926961180037,39.400016647398452],[-104.90926920979081,39.400018621677042],[-104.9092666534887,39.400021219234795],[-104.90926625147902,39.400023193513384],[-104.90926369518418,39.400025790170311],[-104.90926329317442,39.400027764448858],[-104.90926181372269,39.400028908179053],[-104.90925940699712,39.400032221708962],[-104.90925798927947,39.400033480149325],[-104.90925777991541,39.400035603127385],[-104.90925482140997,39.40003922824485],[-104.90925477815524,39.400041479971392],[-104.9092518630964,39.400043800080773],[-104.90925078681212,39.400045740331016],[-104.90925038442272,39.400047898366296],[-104.90924890498546,39.400049040294832],[-104.9092489044,39.400051326466226],[-104.90924799481883,39.400052909047851],[-104.90924651653485,39.400054051882982],[-104.90924150948352,39.400066184420545],[-104.90924003003822,39.400067327249751],[-104.90924003061343,39.400069613426979],[-104.90923855232897,39.400070756262004],[-104.90923855175068,39.400073041532629],[-104.90923707249296,39.400074854541472],[-104.90923707191466,39.400077139812083],[-104.90923559362999,39.400078282647087],[-104.90923529658915,39.40008033852515],[-104.90923411359833,39.400081711647537],[-104.90923411417333,39.400083997824773],[-104.9092326358885,39.400085140659648],[-104.90923233768656,39.400087196531864],[-104.90923115585656,39.40008856966007],[-104.90923115643902,39.400090854936572],[-104.90922967699301,39.400091997765607],[-104.90922937995194,39.400094053643606],[-104.9092267186756,39.400096569600819],[-104.90922671925037,39.40009885577804],[-104.90922523980407,39.400099998607011],[-104.90922523921785,39.400102284778363],[-104.90922228149358,39.400104569541362],[-104.90922228206828,39.400106855718569],[-104.90922080262173,39.400107998547519],[-104.90922050557278,39.400110055326259],[-104.90921932374974,39.400111427553618],[-104.90921902670823,39.400113483431589],[-104.90921636659181,39.40011599939443],[-104.9092160683892,39.400118055266553],[-104.90921340827249,39.400120571229287],[-104.90921311065169,39.400124912377848],[-104.90921192882072,39.400126285505856],[-104.90921163061044,39.400128342278691],[-104.90920919301578,39.40013159800197],[-104.90920897010906,39.400133812790862],[-104.90920632729299,39.400136342352411],[-104.9092060117833,39.40014295607326],[-104.90920336896677,39.400145485634759],[-104.90920305346221,39.400147527907855],[-104.90920157517553,39.400148670742425],[-104.90920157575704,39.400150956018813],[-104.90920009630175,39.400152099748198],[-104.90920009630372,39.400156670295232],[-104.90919713740783,39.400158955952428],[-104.90919713798166,39.400161242129599],[-104.90919565852602,39.40016238585892],[-104.90919565910737,39.400164671135379],[-104.90919449457689,39.400166057862151],[-104.90919417907193,39.400168100135261],[-104.90919301570236,39.400169486867881],[-104.90919270135836,39.400171529146803],[-104.90919122191757,39.400172671074607],[-104.90919122190387,39.400177243423073],[-104.9091897426503,39.400179055530522],[-104.90918826377525,39.400182484536181],[-104.90918787413136,39.400184645337838],[-104.90918578174488,39.400188547759342],[-104.90918530525356,39.400190681099446],[-104.90918382696567,39.400191823933739],[-104.9091838263781,39.400194110105033],[-104.90918234809763,39.400195252038529],[-104.90918234751,39.400197538209831],[-104.90918154289555,39.400199202390567],[-104.90917938937238,39.400202780223445],[-104.90917790993065,39.400203922151],[-104.9091779099161,39.400208494499438],[-104.90917643163527,39.400209636432926],[-104.90917643162064,39.400214208781314],[-104.90917524879281,39.400216116065195],[-104.90917495177797,39.400218307059859],[-104.90917347348935,39.400219449894045],[-104.90917347289414,39.400226307512931],[-104.9091719934443,39.400227450341212],[-104.90917199400992,39.400234307965995],[-104.90917051475465,39.400236120073167],[-104.90917006889548,39.400238061702098],[-104.9091675570002,39.400242978083831],[-104.90916755699251,39.400247549531507],[-104.90916711114073,39.400249490259618],[-104.90916607812258,39.400250977636034],[-104.90916607753442,39.400253263807308],[-104.90916459924486,39.400254406641331],[-104.90916459865666,39.400256692812611],[-104.90916323751173,39.40025854244756],[-104.90916311939276,39.400263076367303],[-104.90916180720521,39.400264348850619],[-104.90916164051465,39.400266505372556],[-104.90916032833458,39.400267776955111],[-104.90916016162015,39.400279077272927],[-104.90915868216143,39.400280221001765],[-104.90915868215318,39.400284792449369],[-104.9091573699727,39.40028606403191],[-104.90915720328201,39.400288220553755],[-104.90915589110143,39.400289492136352],[-104.90915572440309,39.400291649558888],[-104.90915441222242,39.400292921141428],[-104.90915424494311,39.400297363834518],[-104.90915276665243,39.400298506668349],[-104.90915276662761,39.400307650464249],[-104.90915128717577,39.400308793292204],[-104.90915128714953,39.400322507634904],[-104.90914980768981,39.400323651363607],[-104.90914980826966,39.400325936639909],[-104.90914832997836,39.400327079473698],[-104.90914832993508,39.400345366164551],[-104.90914685048236,39.400346508992449],[-104.90914684992207,39.40037178211356],[-104.90915868312709,39.40040835575418],[-104.90915868251389,39.400424356267607],[-104.90915763748488,39.4004263065831],[-104.9091572026734,39.400428453644977],[-104.90915720259979,39.400460455578248],[-104.90915572391187,39.400464553862108],[-104.90915572504848,39.400473697663422],[-104.90915590375067,39.400475925287878],[-104.90915832363879,39.400479215429037],[-104.90915980250578,39.400480358772114],[-104.90916016068958,39.400482366611676],[-104.909161281953,39.40048378739143],[-104.90916164129028,39.400485796137595],[-104.90916423911416,39.400488358447163],[-104.90916867688458,39.400491787581274],[-104.90916982785473,39.400493542699401],[-104.90917199357875,39.400494466115227],[-104.90917495248236,39.400496751906182],[-104.90917635704508,39.40049858757228],[-104.90917938928767,39.400500850312937],[-104.9091822424422,39.4005009313668],[-104.9091881579288,39.40050550293634],[-104.90919861675563,39.400514760756238],[-104.90919876574925,39.400516931481725],[-104.90920157566093,39.400517046546511],[-104.9092045334054,39.400519332330795],[-104.90920568417886,39.400521249587619],[-104.90921369224316,39.400527437800804],[-104.90921488608683,39.400529341763097],[-104.90921784518848,39.400532296831848],[-104.90921997965407,39.400532932740923],[-104.90922228146073,39.400536597909188],[-104.90922523920671,39.400538883692995],[-104.90922650289913,39.400540765488152],[-104.90922937216682,39.40054321837011],[-104.90922967775346,39.400545268280567],[-104.90923319662511,39.400547790196669],[-104.90923467607738,39.400551218814968],[-104.90923763382435,39.400553504598442],[-104.90923855176443,39.400555081086921],[-104.90924150951169,39.400557366870316],[-104.90924207102428,39.40055921900008],[-104.90924446842018,39.40055965265946],[-104.90924742616788,39.400561938442657],[-104.90924798651972,39.400563790566522],[-104.90925034801484,39.400564905933436],[-104.90925329043601,39.400567219563271],[-104.90925334127405,39.400569465458808],[-104.90925482131294,39.400570607905799],[-104.90925772705477,39.40057064868811],[-104.90925777906143,39.400572893688718],[-104.90926073797111,39.400575179477435],[-104.90926364371306,39.400575220259633],[-104.90926369571999,39.400577465260241],[-104.90927103982689,39.400583220448702],[-104.90927210000048,39.400585142652339],[-104.90927552806652,39.400587278576097],[-104.90927634200773,39.400588934708829],[-104.90927848697737,39.400589564364374],[-104.90928440267346,39.400594805207831],[-104.9092846042543,39.400596935663472],[-104.90928736041639,39.400597091890745],[-104.90928756200481,39.400599221445617],[-104.90929327650238,39.400603948731089],[-104.90929446569798,39.400605853569864],[-104.90929730313327,39.400608364840046],[-104.90930215091397,39.400615100990926],[-104.90930643095363,39.400618650028164],[-104.90930752295115,39.400620515642998],[-104.90931842126218,39.400629011809279],[-104.90931851768298,39.400631221903524],[-104.9093213796006,39.400633582866732],[-104.90932249312166,39.40063551254525],[-104.90932433638909,39.400636537920995],[-104.90932581584003,39.400639967438813],[-104.90932729472068,39.400641109878983],[-104.90932825823695,39.400642651466292],[-104.90932877417939,39.400644538496024],[-104.90933025324885,39.400646351115803],[-104.90933321100297,39.400648636896811],[-104.9093332104202,39.400650923067822],[-104.9093349384254,39.400651986595371],[-104.90933616953191,39.400653878133454],[-104.90934182327301,39.400658651950359],[-104.90934208561987,39.400660735871917],[-104.90934478160665,39.40066322390792],[-104.90934504396115,39.400665306928737],[-104.90934652284258,39.400666449368678],[-104.90934738374249,39.400668459743365],[-104.90934948078697,39.400669405328799],[-104.90934948136574,39.400671691505678],[-104.90935243926513,39.400674652870215],[-104.90935243985157,39.400676938146347],[-104.909355397857,39.400679886900441],[-104.90935539727498,39.400682173071431],[-104.90935835503142,39.400684458851785],[-104.90935921337271,39.400686081879037],[-104.90936069224726,39.400687225219535],[-104.90936217170862,39.400690653836151],[-104.9093642713207,39.400691985867908],[-104.90936451731629,39.400694081417029],[-104.90936870872865,39.400698370444118],[-104.90936870930805,39.400700656620948],[-104.90937129954909,39.400700939018996],[-104.90937277958511,39.400702082365193],[-104.90937314594834,39.400704084840562],[-104.90937425788643,39.400705510975804],[-104.90937610370628,39.400706370620426],[-104.90937808120195,39.400710082791576],[-104.90938104012129,39.400712368577175],[-104.90938341875166,39.400715735071323],[-104.90939078127747,39.400721511963475],[-104.90939089405271,39.400723710430029],[-104.90939586407664,39.400727637667615],[-104.909398289422,39.400728477715511],[-104.90940420610266,39.400733049279751],[-104.90940434691576,39.400735227169768],[-104.90941751777061,39.400745621017229],[-104.90941765742312,39.400747798901413],[-104.90941913630749,39.400748941340417],[-104.90942162048709,39.400749826723434],[-104.9094219540258,39.40075200558551],[-104.90942491294831,39.400754291369985],[-104.9094256236757,39.400756349628594],[-104.90942787033507,39.400759531697581],[-104.9094282647376,39.400761513596223],[-104.90943082867852,39.400764103652811],[-104.90943122308117,39.40076608555146],[-104.90943406525474,39.400768586933509],[-104.90943763615483,39.400773631283258],[-104.90943970294231,39.400774585722203],[-104.90944035093395,39.400776371629497],[-104.90944182981924,39.400777514068174],[-104.90944330928646,39.400780942683681],[-104.90944459827061,39.400782439971785],[-104.90944709812577,39.400783256073446],[-104.90944709870773,39.400785542250226],[-104.90944857759337,39.400786684688839],[-104.909451824979,39.400792372363362],[-104.90945449409824,39.400794880979085],[-104.90945478216443,39.400796944312098],[-104.90945597240541,39.400798309588559],[-104.90945626164016,39.400800372026694],[-104.90945893132343,39.400800596272859],[-104.90945922056582,39.400802657810218],[-104.9094604107995,39.400804023987348],[-104.90946069887339,39.400806086419621],[-104.90946484686471,39.40080973927504],[-104.90946513609983,39.400811801713154],[-104.90946653122738,39.400813102265971],[-104.90946982731836,39.40081865867203],[-104.90947372172971,39.400822506617757],[-104.90947410532894,39.400824669518059],[-104.9094766095734,39.40082551626768],[-104.90947668027638,39.400827747850656],[-104.90947815799483,39.400828891183778],[-104.90947815858532,39.400831176459768],[-104.90948104623193,39.400833516830708],[-104.90948111693504,39.400835748413677],[-104.90948259660307,39.400839846307441],[-104.90948259660829,39.400844418655083],[-104.90948407433471,39.400845561087394],[-104.90948407514695,39.400848374220239],[-104.90949738659575,39.400875804275145],[-104.90949738661701,39.400880374821284],[-104.90949843262032,39.4008823266769],[-104.90949886570954,39.400886758885648],[-104.90950034421111,39.400890857674042],[-104.90950034480235,39.400893142950046],[-104.90950157008989,39.400895037159181],[-104.90950182388789,39.400899527915094],[-104.90950330277677,39.400900670352982],[-104.9095047824399,39.400904769147161],[-104.90950478187027,39.400907054417253],[-104.9095062607518,39.40090819775584],[-104.90950626018223,39.400910483025996],[-104.90950773965531,39.400913911640565],[-104.90950773966972,39.400918483087331],[-104.90950921855155,39.400919626425896],[-104.90950921914998,39.400926484049421],[-104.90950972575858,39.400928377336584],[-104.90951069862362,39.400929912663933],[-104.90951217634473,39.400931055996587],[-104.90951365582609,39.40093448371028],[-104.9095151347084,39.400935627048753],[-104.90951661418246,39.400939055663194],[-104.90951809307242,39.400940198100876],[-104.90951809307992,39.40094477044844],[-104.90951957313104,39.40094591289192],[-104.90952105144456,39.400949341500429],[-104.90952105145981,39.400953912947202],[-104.90952253034257,39.400955056285603],[-104.90952288949526,39.40095722716935],[-104.90952498152066,39.400961129078574],[-104.90952772935475,39.400968378882297],[-104.90952992596735,39.400969636635594],[-104.90952992539093,39.400971922806406],[-104.90953140428185,39.40097306524391],[-104.90953150964309,39.4009753177194],[-104.90953436302975,39.400978976654685],[-104.90953584192088,39.400980119092125],[-104.90953584251325,39.400982404368037],[-104.90953732023588,39.400983547700363],[-104.90953920230635,39.400988951047687],[-104.90954160925524,39.400992265435988],[-104.90954175886306,39.400994502821376],[-104.90954450628556,39.400996951477616],[-104.90954471664784,39.401001360944264],[-104.90954767462216,39.401004315998442],[-104.90954767520736,39.401006602175109],[-104.9095506329836,39.40100888795039],[-104.90955063240793,39.401011174121201],[-104.90955359135305,39.401013459001504],[-104.90955359078501,39.401015744271575],[-104.90955506966961,39.401016887609522],[-104.90955553360021,39.401019024791928],[-104.90955654933819,39.40102098640287],[-104.90955802823051,39.401022128840033],[-104.90955802765507,39.401024415010816],[-104.90956098543245,39.401026700785849],[-104.90956103042275,39.40102895295685],[-104.90956394380328,39.401031271836672],[-104.90956398762516,39.401033524902573],[-104.90956838105222,39.401036987125963],[-104.90956842488933,39.401039238390361],[-104.90957281850795,39.401043370793069],[-104.90957429682614,39.401046799400838],[-104.90957703264012,39.401050495574779],[-104.90957873504888,39.401051567076493],[-104.90957873448164,39.401053852346514],[-104.90958021336746,39.401054995684156],[-104.90958021395375,39.40105728186073],[-104.90958169284725,39.401058424297624],[-104.90958169343358,39.401060710474241],[-104.90958433569099,39.401063239669178],[-104.90958465064612,39.40106528151864],[-104.90959025183749,39.401070097394395],[-104.90959056795383,39.401072139249685],[-104.90959173132556,39.401073525106987],[-104.90959204627342,39.401075567857177],[-104.90959500424523,39.401078523810789],[-104.90959500367855,39.401080809080831],[-104.90959648373378,39.401081951523366],[-104.90959796204632,39.401085381031493],[-104.90959944094067,39.401086523468095],[-104.90959944152758,39.401088809644698],[-104.90959999253687,39.401090669826431],[-104.90960092101652,39.401092237357211],[-104.90960239874251,39.401093380688657],[-104.90960535769838,39.401100238815694],[-104.90960683659316,39.401101381252225],[-104.90960683718782,39.401103666528094],[-104.90960831491417,39.401104809859504],[-104.90961034540609,39.401110098654236],[-104.90961127387109,39.401111667986349],[-104.90961275276621,39.401112810422802],[-104.90961330377611,39.401114670604471],[-104.90961478383228,39.401115813046744],[-104.90961714715304,39.401119208283397],[-104.90961718965725,39.401121480258858],[-104.90961866971364,39.401122622701102],[-104.90961967149271,39.401124587844144],[-104.90962162768854,39.401125578654053],[-104.9096216271227,39.401127863924039],[-104.90962310601837,39.401129006360343],[-104.90962310660603,39.401131292536931],[-104.9096245854942,39.401132435873954],[-104.90962539009396,39.401134100063807],[-104.90962686898982,39.401135242500089],[-104.90962754386607,39.401137007823785],[-104.90962754446142,39.401139293099632],[-104.90962902219637,39.40114043553001],[-104.9096290227842,39.401142721706599],[-104.90963050167272,39.401143865043551],[-104.90963050170262,39.401148435589356],[-104.90963198117926,39.401151865102868],[-104.90963345891456,39.401153007533175],[-104.90963345893709,39.401157578979699],[-104.90963493898695,39.40115872232245],[-104.90963493841402,39.401161008493162],[-104.90963641693681,39.401165106378777],[-104.90963660920426,39.401171815439071],[-104.90963937534124,39.401174248874042],[-104.90963937592942,39.401176535050617],[-104.90964085481885,39.40117767838742],[-104.90964085541462,39.401179963663253],[-104.9096423343041,39.401181107000049],[-104.90964246993823,39.401183349719361],[-104.90964381282777,39.401185204885529],[-104.9096452917174,39.401186348222275],[-104.9096452923133,39.401188633498101],[-104.90964635050385,39.401190101696066],[-104.90964677179906,39.401192062110631],[-104.90964824952788,39.401193205441466],[-104.90964930888707,39.401194672744516],[-104.90964973017486,39.401196634059836],[-104.90965120791139,39.401197776489916],[-104.90965120849995,39.401200062666476],[-104.90965268739001,39.40120120600313],[-104.90965268798618,39.401203491278913],[-104.90965522507484,39.401206101912685],[-104.90965564636285,39.401208063227976],[-104.90965860435044,39.40121101827917],[-104.90965904962094,39.401215245171024],[-104.90966008326512,39.401216733062185],[-104.90966052910792,39.401218673783362],[-104.90966292310317,39.401222011523807],[-104.90966304127771,39.401224259559719],[-104.90966452017608,39.401225401995504],[-104.90966452076508,39.401227688172014],[-104.90966583139279,39.401228959471389],[-104.90966599909153,39.401231116778426],[-104.90966731087279,39.401232388984383],[-104.90966747857914,39.401234545390651],[-104.90967026925917,39.401236960032271],[-104.90967043523283,39.40124140260334],[-104.90967191528505,39.401242545945607],[-104.90967487329999,39.401250072442792],[-104.90967635239105,39.401251885057903],[-104.90967635181946,39.401254171228544],[-104.90967783187963,39.401255313670006],[-104.90967783133344,39.401262171287051],[-104.9096793102253,39.401263314623371],[-104.90967930968681,39.401270171339668],[-104.90968078973982,39.401271314681786],[-104.90968087681691,39.401273532835226],[-104.909682268068,39.401274743287971],[-104.90968235514514,39.401276961441383],[-104.90968374755738,39.401278171899939],[-104.90968383463455,39.401280390053387],[-104.90968966393875,39.401285697997743],[-104.9096911422601,39.401289127504519],[-104.90969357590853,39.401289533413156],[-104.9096941012139,39.401291413281896],[-104.9096955801141,39.401292555717227],[-104.90970001680003,39.401295984824628],[-104.90970245044875,39.401296390733066],[-104.9097029757544,39.401298270601707],[-104.90970445368619,39.401300083210607],[-104.9097062738176,39.401300962537441],[-104.90970741264087,39.401302368987615],[-104.90971037044226,39.401304653857942],[-104.90971219056637,39.401305534085388],[-104.90971332823634,39.40130693962891],[-104.90971628719157,39.401309225405704],[-104.90971810615484,39.401310105627196],[-104.90971924498605,39.401311511176544],[-104.90973255737408,39.40132179850719],[-104.90973289688925,39.401323819762013],[-104.90973881363412,39.401328392209315],[-104.90974143076114,39.401328655818219],[-104.90974734636109,39.401333226457801],[-104.90974768818361,39.401335249525744],[-104.90975178441327,39.40133732484783],[-104.90975917910217,39.401343709001608],[-104.90975977452248,39.401345535176766],[-104.90976213806047,39.401345994777195],[-104.90976509585789,39.401348280546863],[-104.90976569011747,39.401350106716116],[-104.9097680536556,39.401350566316424],[-104.90976953371174,39.401351709657369],[-104.90977012681041,39.401353535820803],[-104.90977160687416,39.401354678261036],[-104.90977397041253,39.401355137861238],[-104.90977544930783,39.401356281196286],[-104.90977752303144,39.401356964529938],[-104.90978343978954,39.401361536074262],[-104.90978580332815,39.401361995674215],[-104.90978876112709,39.401364281443236],[-104.90978876121451,39.401364964233089]]},"properties":{"Trail___dd_Proj.OBJECTID":1,"Trail___dd_Proj.Id":0,"Trail___dd_Proj.Shape_Length":1158.611555629117,"Trail___dd_Proj_AddSpatialJoin.OBJECTID":1,"Trail___dd_Proj_AddSpatialJoin.Join_Count":1,"Trail___dd_Proj_AddSpatialJoin.TARGET_FID":1,"Trail___dd_Proj_AddSpatialJoin.STRNAME":"Un-named","Trail___dd_Proj_AddSpatialJoin.Shape_Length":1158.611555629117,"Trail___dd_Proj_AddSpatialJoin_1.OBJECTID":1,"Trail___dd_Proj_AddSpatialJoin_1.Join_Count":1,"Trail___dd_Proj_AddSpatialJoin_1.TARGET_FID":1,"Trail___dd_Proj_AddSpatialJoin_1.OBJECTID_1":191,"Trail___dd_Proj_AddSpatialJoin_1.FNODE_":16464,"Trail___dd_Proj_AddSpatialJoin_1.TNODE_":16781,"Trail___dd_Proj_AddSpatialJoin_1.STRNAME":"Un-named","Trail___dd_Proj_AddSpatialJoin_1.GLOBALID":"3e632323-3ae9-4714-81dd-3b3703f09596","Trail___dd_Proj_AddSpatialJoin_1.created_us":" ","Trail___dd_Proj_AddSpatialJoin_1.created_da":" ","Trail___dd_Proj_AddSpatialJoin_1.last_edite":" ","Trail___dd_Proj_AddSpatialJoin_1.last_edi_1":" ","Trail___dd_Proj_AddSpatialJoin_1.SHAPE_STLe":" ","Trail___dd_Proj_AddSpatialJoin_1.OBJECTID_2":159,"Trail___dd_Proj_AddSpatialJoin_1.SHAPE__Len":10567.314592500001,"Trail___dd_Proj_AddSpatialJoin_1.Shape_Leng":10567.314423,"Trail___dd_Proj_AddSpatialJoin_1.Reach_ID":"R4","Trail___dd_Proj_AddSpatialJoin_1.FullName":"R4 Un-named","Trail___dd_Proj_AddSpatialJoin_1.Length":1305.174680781729,"Trail___dd_Proj_AddSpatialJoin_1.Percent":4.8776308492303464,"Trail___dd_Proj_AddSpatialJoin_1.Shape_Length":1305.1088937948296}},{"type":"Feature","id":2,"geometry":{"type":"LineString","coordinates":[[-104.90920861257352,39.39968101423522],[-104.90920861252617,39.399684759669874],[-104.90920800719161,39.399685227722529],[-104.90920800747377,39.399686163632275],[-104.90920740213917,39.399686631684908],[-104.90920740153499,39.399688504399315],[-104.90920679506608,39.399689246282719],[-104.90920654522658,39.399690103463577],[-104.9092055832549,39.399690457119469],[-104.9092055835295,39.399691393929992],[-104.90920497819485,39.399691861982632],[-104.90920487349251,39.399692718094187],[-104.90920376664661,39.399693733991747],[-104.90920366194429,39.399694590103302],[-104.90920316042553,39.399695138848941],[-104.90920316098219,39.399697011569245],[-104.90920305627985,39.399697867680807],[-104.90920255476861,39.399698415525712],[-104.90920255416425,39.399700288240133],[-104.90920194882951,39.399700756292731],[-104.90920194957285,39.399711055792039],[-104.90920184487042,39.399711911903609],[-104.90920134335907,39.399712459748521],[-104.90920123893122,39.39971425267062],[-104.90920073741985,39.399714800515504],[-104.90920073733186,39.39972229048405],[-104.90920013198937,39.399722759437367],[-104.90920013133717,39.399728377586392],[-104.9091995248487,39.399728844732373],[-104.90919952540527,39.399730717452634],[-104.90919892007024,39.399731185505175],[-104.90919891974788,39.399733994129328],[-104.90919881620637,39.399734850246752],[-104.9091983146873,39.399735398992405],[-104.90919821082342,39.399739063733975],[-104.9091977081433,39.399739612473695],[-104.90919760427937,39.399743277215308],[-104.9091971027602,39.399743825960932],[-104.90919699862177,39.39974655389198],[-104.90919589060637,39.399747570684319],[-104.90919589028391,39.399750379308465],[-104.90919528494112,39.399750848261739],[-104.90919528523068,39.399751783270744],[-104.90919467872688,39.399752252218171],[-104.90919457458833,39.399754980149218],[-104.90919407306907,39.399755528894858],[-104.90919399951923,39.399757377820912],[-104.90919346714828,39.399758144399136],[-104.9091934668257,39.39976095302324],[-104.90919286151704,39.399761694912442],[-104.90919286207341,39.399763567632647],[-104.90919225585901,39.399764971589079],[-104.90919225581078,39.39976871702369],[-104.90919165046783,39.399769185976936],[-104.90919164958882,39.39977012188087],[-104.9091910442534,39.39977058993334],[-104.90919104448707,39.399775271277697],[-104.90919046811962,39.399776023221463],[-104.90919043768697,39.399778822685839],[-104.90918987619681,39.399779323387641],[-104.9091898329078,39.399781163458556],[-104.9091892275722,39.399781631511104],[-104.90918922669316,39.399782567415009],[-104.90918801546303,39.399785924808356],[-104.90918801574492,39.399786860718123],[-104.90918740924077,39.399787329665521],[-104.90918740952267,39.399788265575239],[-104.90918680302612,39.399788733621911],[-104.90918674244311,39.399790559193185],[-104.90918559177669,39.39979181627789],[-104.90918559205102,39.399792753088377],[-104.90918498671532,39.399793221140889],[-104.90918498583621,39.399794157044767],[-104.90918457083876,39.399794771983679],[-104.90918437989575,39.3997964978116],[-104.9091837745525,39.399796966764825],[-104.909183358394,39.399797581697911],[-104.90918195706128,39.399801179540496],[-104.90918074522875,39.399802115639609],[-104.90918032907025,39.399802730572659],[-104.90917924011571,39.399805767005226],[-104.90917832213866,39.399806135295343],[-104.90917832125947,39.399807071199184],[-104.90917771592363,39.399807539251654],[-104.90917755123502,39.399808349120867],[-104.90917711086203,39.399808944114604],[-104.90917650436516,39.399809412161197],[-104.90917633968407,39.39981022112962],[-104.90917529280662,39.399811285070697],[-104.90917512812555,39.399812094039106],[-104.90917234946704,39.399814902155789],[-104.90917226322657,39.399815771872134],[-104.9091711390693,39.399816775071081],[-104.90917105282875,39.399817644787476],[-104.9091698409958,39.399818580886404],[-104.90916984011649,39.399819516790309],[-104.90916802293995,39.399820921842384],[-104.90916765615782,39.399821740600409],[-104.90916681112591,39.399822132678693],[-104.9091662060715,39.399823536640874],[-104.90916499423084,39.399824473640528],[-104.9091639468718,39.399826010487487],[-104.90916317710709,39.399826426365834],[-104.90916248407116,39.399828076697155],[-104.90916162864706,39.399828738956401],[-104.90916075379417,39.399830056883957],[-104.90916014728947,39.399830525831213],[-104.90915992147649,39.399831286749944],[-104.90915870963562,39.399832223749549],[-104.9091581045809,39.399833627711615],[-104.90915713595646,39.3998340822207],[-104.90915472029567,39.399835968871187],[-104.90915469519416,39.39983688573647],[-104.90915045434976,39.399840162985917],[-104.90914984903988,39.39984090487485],[-104.90914742536509,39.399842777973056],[-104.90914681889421,39.39984351985612],[-104.90914378989035,39.399845860105835],[-104.90914371172346,39.399846736168392],[-104.90914257833033,39.399847733015015],[-104.90914209459848,39.399848514250841],[-104.90914153955981,39.399849076237821],[-104.90914057778006,39.39984954519376],[-104.90914015470035,39.399850154687094],[-104.9091377321935,39.399852026890223],[-104.90913754904946,39.399852822253784],[-104.90913530854441,39.399854173824814],[-104.90913288606365,39.399856319864504],[-104.90913167424834,39.399857530700473],[-104.90913163760473,39.399858439400489],[-104.90913046241424,39.399858466798989],[-104.90912946631258,39.399859844466583],[-104.90912924971147,39.399860614439525],[-104.90912825448589,39.399860779664408],[-104.90912764798077,39.399861248611479],[-104.90912743254061,39.399862018590227],[-104.90912682720396,39.399862486642419],[-104.90912583080986,39.399862652762167],[-104.90912522431218,39.399863120808497],[-104.90912500952346,39.399863120625383],[-104.90911076111384,39.39987132326943],[-104.9091105880144,39.399871889886008],[-104.90910977835244,39.39987290998468],[-104.90910818262032,39.399874213464699],[-104.90910752137904,39.399874425413678],[-104.90910533259185,39.399876116838485],[-104.90910466551546,39.399876332361188],[-104.90910356936524,39.399877179866216],[-104.90910300539706,39.399877422031757],[-104.90910224651232,39.399878201878884],[-104.90909961423094,39.399879337087022],[-104.9090995165875,39.39987990498517],[-104.90909887944932,39.399880011664791],[-104.90909835389718,39.399880380133055],[-104.9090980154043,39.399880871150415],[-104.90909726157351,39.399880909682757],[-104.90909687551061,39.399881396856919],[-104.90909625586823,39.399881632436077],[-104.90909512084866,39.399882407682647],[-104.90909422367129,39.399883203045839],[-104.90909350412616,39.399883306607222],[-104.90909317446237,39.399883713896727],[-104.90909262522237,39.399884138093732],[-104.90909203216161,39.399884388219398],[-104.90909158979973,39.399884804848732],[-104.90908938040707,39.399886045780256],[-104.90908828309553,39.399886893279302],[-104.90908762185408,39.399887105228217],[-104.90908689850085,39.399887801482215],[-104.90908628258808,39.399888700052713],[-104.90908555893513,39.39988873963803],[-104.90908555855709,39.399889338653445],[-104.90908517058196,39.399889638456138],[-104.90908512061405,39.399890197587077],[-104.90908439511051,39.399891011832104],[-104.90908419904036,39.399891548607037],[-104.90908362079246,39.399892386114672],[-104.90908323165625,39.399892685911468],[-104.90908287580136,39.399893170535677],[-104.90908284415237,39.399893760385567],[-104.90908172523308,39.399894692448605],[-104.90908143785335,39.399895180120751],[-104.90908051801489,39.399895908711919],[-104.90908022700116,39.39989641438121],[-104.9090796537882,39.399896789815131],[-104.90907896665927,39.399897458327821],[-104.90907862932713,39.399897949350958],[-104.90907858031623,39.399898532807697],[-104.90907702811873,39.399899905866889],[-104.90907702890159,39.399900504888151],[-104.90907648519841,39.399900684101425],[-104.9090754774053,39.399902902135416],[-104.90907497942388,39.399903167153276],[-104.90907470228139,39.399903680098838],[-104.90907353951648,39.399904579512537],[-104.90907292824731,39.399905478106362],[-104.90907237647765,39.399905650072661],[-104.90907198850232,39.399905949875283],[-104.90906966266823,39.399907923452012],[-104.90906934386638,39.399908419973279],[-104.90906888641345,39.399908697806623],[-104.90906859648706,39.399909073769372],[-104.90906733536895,39.399910071772219],[-104.90906697024867,39.399910553647295],[-104.90906465270176,39.399912369629646],[-104.90906462234196,39.399912944172755],[-104.90906268239439,39.399915143990512],[-104.90906258166035,39.399915665032587],[-104.90906152048602,39.399916218159376],[-104.90906152010778,39.399916817174805],[-104.90906074384526,39.399917592430093],[-104.90906035665256,39.399918491253935],[-104.90905919362841,39.399919560012449],[-104.90905919325016,39.399920159027872],[-104.90905891377044,39.399920673763134],[-104.90905841810327,39.399920939693452],[-104.90905841772501,39.399921538708853],[-104.90905802974953,39.399921838511418],[-104.90905803053226,39.399922437532744],[-104.9090576413958,39.399922737329405],[-104.90905764217857,39.399923336350703],[-104.90905686623512,39.399923935055064],[-104.90905686701785,39.399924534076355],[-104.90905647951338,39.399925608550348],[-104.90905647913509,39.399926207565748],[-104.9090560911521,39.399926508269068],[-104.90905601772954,39.399927649184171],[-104.90905537782817,39.399928500792925],[-104.90905531610267,39.399930877634439],[-104.90905492859817,39.399931952108439],[-104.90905492784159,39.399933150139233],[-104.90905454064875,39.399934048963082],[-104.9090545414314,39.399934647984374],[-104.90905415229493,39.399934947781063],[-104.90905415231344,39.399936745733918],[-104.90905376525173,39.399936936546943]]},"properties":{"Trail___dd_Proj.OBJECTID":2,"Trail___dd_Proj.Id":0,"Trail___dd_Proj.Shape_Length":111.07900054733733,"Trail___dd_Proj_AddSpatialJoin.OBJECTID":2,"Trail___dd_Proj_AddSpatialJoin.Join_Count":1,"Trail___dd_Proj_AddSpatialJoin.TARGET_FID":2,"Trail___dd_Proj_AddSpatialJoin.STRNAME":"Un-named","Trail___dd_Proj_AddSpatialJoin.Shape_Length":111.07900054733733,"Trail___dd_Proj_AddSpatialJoin_1.OBJECTID":2,"Trail___dd_Proj_AddSpatialJoin_1.Join_Count":1,"Trail___dd_Proj_AddSpatialJoin_1.TARGET_FID":2,"Trail___dd_Proj_AddSpatialJoin_1.OBJECTID_1":191,"Trail___dd_Proj_AddSpatialJoin_1.FNODE_":16464,"Trail___dd_Proj_AddSpatialJoin_1.TNODE_":16781,"Trail___dd_Proj_AddSpatialJoin_1.STRNAME":"Un-named","Trail___dd_Proj_AddSpatialJoin_1.GLOBALID":"3e632323-3ae9-4714-81dd-3b3703f09596","Trail___dd_Proj_AddSpatialJoin_1.created_us":" ","Trail___dd_Proj_AddSpatialJoin_1.created_da":" ","Trail___dd_Proj_AddSpatialJoin_1.last_edite":" ","Trail___dd_Proj_AddSpatialJoin_1.last_edi_1":" ","Trail___dd_Proj_AddSpatialJoin_1.SHAPE_STLe":" ","Trail___dd_Proj_AddSpatialJoin_1.OBJECTID_2":159,"Trail___dd_Proj_AddSpatialJoin_1.SHAPE__Len":10567.314592500001,"Trail___dd_Proj_AddSpatialJoin_1.Shape_Leng":10567.314423,"Trail___dd_Proj_AddSpatialJoin_1.Reach_ID":"R4","Trail___dd_Proj_AddSpatialJoin_1.FullName":"R4 Un-named","Trail___dd_Proj_AddSpatialJoin_1.Length":1305.174680781729,"Trail___dd_Proj_AddSpatialJoin_1.Percent":4.8776308492303464,"Trail___dd_Proj_AddSpatialJoin_1.Shape_Length":1305.1088937948296}}]}